{"type":"FeatureCollection","features":[{"type":"Feature","properties":{"n":"Cuscatlán","lat":13.849232582901559,"lon":-89.02624686735753},"geometry":{"type":"Polygon","coordinates":[[[-89.13859,14.06478],[-89.1422,14.04735],[-89.14766,14.03951],[-89.15238,14.0393],[-89.15345,14.03689],[-89.15345,14.0271],[-89.15521,14.02502],[-89.15238,14.02342],[-89.14924,14.01869],[-89.15053,14.00941],[-89.14736,14.00145],[-89.14972,13.99945],[-89.14901,13.9947],[-89.15731,13.98067],[-89.15697,13.97364],[-89.15866,13.97077],[-89.16276,13.9691],[-89.16522,13.9642],[-89.16863,13.96123],[-89.16688,13.95849],[-89.16598,13.94932],[-89.16442,13.94823],[-89.16541,13.94663],[-89.16207,13.94456],[-89.1609,13.94],[-89.15462,13.93236],[-89.15258,13.92581],[-89.14945,13.92242],[-89.14975,13.9187],[-89.14384,13.9166],[-89.13838,13.91087],[-89.13404,13.91032],[-89.12273,13.89484],[-89.12235,13.89106],[-89.13008,13.88192],[-89.13308,13.87547],[-89.1515,13.86766],[-89.15555,13.86877],[-89.15663,13.86441],[-89.15566,13.86311],[-89.15426,13.86379],[-89.14876,13.85844],[-89.14716,13.85118],[-89.1433,13.84825],[-89.14297,13.84259],[-89.14124,13.83907],[-89.13326,13.84441],[-89.13528,13.84536],[-89.13165,13.84765],[-89.12592,13.84636],[-89.12274,13.84749],[-89.12203,13.84544],[-89.12049,13.84659],[-89.11801,13.84087],[-89.11425,13.8379],[-89.11517,13.83318],[-89.11348,13.83039],[-89.1144,13.82752],[-89.11331,13.82315],[-89.10867,13.82087],[-89.10627,13.81555],[-89.10227,13.81342],[-89.10196,13.80671],[-89.09825,13.80344],[-89.09362,13.80167],[-89.08869,13.80265],[-89.08839,13.80118],[-89.06978,13.80149],[-89.07057,13.7921],[-89.05278,13.76749],[-89.05088,13.75691],[-89.04897,13.75556],[-89.04977,13.75315],[-89.04437,13.74961],[-89.04009,13.74453],[-89.04012,13.73777],[-89.02545,13.69805],[-89.04485,13.67087],[-88.99753,13.6616],[-88.98971,13.66357],[-88.98149,13.66325],[-88.97866,13.65578],[-88.97626,13.65463],[-88.97513,13.65113],[-88.96952,13.6488],[-88.9648,13.64906],[-88.96102,13.64664],[-88.9518,13.64643],[-88.94613,13.64103],[-88.94121,13.64027],[-88.94053,13.64355],[-88.93774,13.64465],[-88.9354,13.64859],[-88.93609,13.65061],[-88.93339,13.65963],[-88.93487,13.66226],[-88.92808,13.66189],[-88.92588,13.66356],[-88.92398,13.66229],[-88.91912,13.66256],[-88.9094,13.67008],[-88.90831,13.66797],[-88.90133,13.66723],[-88.89281,13.67398],[-88.88299,13.68823],[-88.87158,13.68823],[-88.86667,13.69139],[-88.87483,13.71047],[-88.87158,13.72156],[-88.86176,13.73587],[-88.86176,13.75018],[-88.85851,13.76287],[-88.86713,13.77218],[-88.87363,13.77678],[-88.88547,13.77573],[-88.88745,13.77939],[-88.89061,13.77912],[-88.89279,13.78265],[-88.89597,13.78365],[-88.89876,13.78858],[-88.90489,13.7894],[-88.90532,13.79068],[-88.91237,13.78859],[-88.91736,13.79246],[-88.92069,13.79246],[-88.91797,13.79815],[-88.92212,13.80125],[-88.92085,13.80387],[-88.92194,13.80591],[-88.91243,13.80782],[-88.9118,13.81784],[-88.91481,13.81958],[-88.91716,13.82328],[-88.92426,13.81933],[-88.93044,13.81925],[-88.9331,13.82196],[-88.93465,13.82135],[-88.93186,13.82587],[-88.93345,13.83246],[-88.93806,13.83458],[-88.9407,13.83869],[-88.94396,13.83942],[-88.95003,13.84704],[-88.95149,13.84729],[-88.95506,13.84363],[-88.96123,13.84433],[-88.96098,13.84819],[-88.96424,13.84894],[-88.96518,13.8515],[-88.96778,13.85281],[-88.96821,13.85619],[-88.97053,13.85542],[-88.9745,13.85819],[-88.97671,13.85808],[-88.98557,13.86408],[-88.98805,13.86862],[-88.98218,13.87942],[-88.98148,13.88478],[-88.98711,13.88681],[-88.98328,13.90362],[-88.98193,13.90619],[-88.97545,13.91],[-88.97484,13.91435],[-88.96997,13.91647],[-88.95838,13.92593],[-88.95697,13.93333],[-88.94879,13.94106],[-88.95323,13.94393],[-88.96752,13.94781],[-88.9751,13.94523],[-88.98939,13.95327],[-89.0017,13.95286],[-89.00602,13.95573],[-89.01467,13.95737],[-89.01737,13.96634],[-89.01465,13.97056],[-89.01475,13.97338],[-89.01986,13.97647],[-89.02095,13.97897],[-89.02137,13.98916],[-89.01931,13.99541],[-89.02113,13.99808],[-89.02758,13.99935],[-89.03118,14.00462],[-89.03433,14.03599],[-89.10313,14.04723],[-89.10519,14.0485],[-89.10746,14.05518],[-89.11251,14.06041],[-89.11352,14.06607],[-89.1207,14.07785],[-89.13288,14.06776],[-89.13829,14.0651],[-89.13859,14.06478]]]}},{"type":"Feature","properties":{"n":"Usulután","lat":13.374925092477877,"lon":-88.39298631017701},"geometry":{"type":"Polygon","coordinates":[[[-88.49553,13.70593],[-88.4862,13.69382],[-88.49,13.68521],[-88.49965,13.67528],[-88.52201,13.66414],[-88.5242,13.66212],[-88.5257,13.65695],[-88.53806,13.65126],[-88.5452,13.64225],[-88.5511,13.63866],[-88.55258,13.62728],[-88.55512,13.62413],[-88.56077,13.62202],[-88.56501,13.61594],[-88.56767,13.61025],[-88.56733,13.60389],[-88.57161,13.59765],[-88.58208,13.59408],[-88.58999,13.5891],[-88.60026,13.58685],[-88.60758,13.58751],[-88.61791,13.58343],[-88.62087,13.58325],[-88.62727,13.58706],[-88.63186,13.58712],[-88.63474,13.58315],[-88.633,13.57639],[-88.63368,13.57324],[-88.63558,13.57006],[-88.63898,13.56964],[-88.6439,13.56469],[-88.6434,13.55599],[-88.64483,13.55338],[-88.64967,13.54868],[-88.65908,13.55265],[-88.66535,13.54773],[-88.66946,13.54031],[-88.66594,13.53197],[-88.66585,13.52693],[-88.67122,13.51583],[-88.67275,13.4986],[-88.6761,13.48879],[-88.67675,13.4794],[-88.67875,13.47531],[-88.67655,13.46229],[-88.67878,13.45841],[-88.68677,13.45442],[-88.69064,13.4506],[-88.69736,13.42588],[-88.71039,13.41738],[-88.71818,13.40682],[-88.72075,13.38925],[-88.73046,13.36954],[-88.73054,13.35882],[-88.72225,13.34648],[-88.72164,13.33904],[-88.72554,13.33503],[-88.74374,13.32436],[-88.75191,13.31192],[-88.77042,13.29908],[-88.77625,13.2926],[-88.79344,13.2814],[-88.80053,13.27867],[-88.80745,13.27241],[-88.81392,13.26442],[-88.81178,13.25193],[-88.76396,13.23473],[-88.737,13.22799],[-88.62207,13.20856],[-88.51445,13.1835],[-88.4722,13.17075],[-88.41692,13.16358],[-88.40187,13.16028],[-88.39488,13.16355],[-88.36872,13.1695],[-88.33407,13.17398],[-88.29728,13.17153],[-88.25396,13.16581],[-88.24843,13.16723],[-88.24364,13.16409],[-88.22558,13.16135],[-88.22434,13.15921],[-88.2224,13.16196],[-88.21935,13.16182],[-88.21763,13.15956],[-88.21564,13.16203],[-88.20889,13.16066],[-88.20813,13.16343],[-88.20479,13.16282],[-88.20241,13.16591],[-88.20051,13.16541],[-88.19865,13.16682],[-88.19111,13.16496],[-88.18786,13.16833],[-88.17664,13.16826],[-88.17575,13.16704],[-88.17169,13.16756],[-88.1688,13.16627],[-88.16193,13.16904],[-88.15642,13.16741],[-88.15619,13.16896],[-88.15213,13.16879],[-88.13126,13.16639],[-88.1266,13.16464],[-88.12502,13.16766],[-88.12157,13.16708],[-88.12378,13.17342],[-88.13242,13.18307],[-88.13385,13.1864],[-88.14044,13.19163],[-88.16276,13.21694],[-88.16597,13.21761],[-88.16396,13.22622],[-88.17095,13.22721],[-88.17236,13.2305],[-88.17437,13.23009],[-88.18232,13.23313],[-88.18555,13.23146],[-88.18968,13.23439],[-88.19524,13.23584],[-88.22331,13.23551],[-88.22272,13.24565],[-88.21339,13.25933],[-88.21251,13.25858],[-88.21085,13.26027],[-88.20851,13.26028],[-88.18964,13.27439],[-88.19275,13.27578],[-88.19687,13.28081],[-88.2053,13.2822],[-88.20753,13.27933],[-88.21125,13.27876],[-88.21943,13.2815],[-88.21883,13.28532],[-88.227,13.30129],[-88.22649,13.30395],[-88.22916,13.30312],[-88.23079,13.30751],[-88.2323,13.30587],[-88.23341,13.31062],[-88.23412,13.307],[-88.23728,13.30704],[-88.2346,13.30376],[-88.24176,13.30121],[-88.24185,13.30481],[-88.24494,13.30436],[-88.2449,13.30294],[-88.24678,13.30206],[-88.2587,13.31139],[-88.26467,13.31096],[-88.266,13.30859],[-88.26842,13.30955],[-88.26898,13.31078],[-88.26709,13.3133],[-88.26789,13.31575],[-88.26913,13.31317],[-88.27335,13.3116],[-88.27318,13.30961],[-88.27606,13.31104],[-88.27501,13.30759],[-88.27872,13.3078],[-88.27849,13.30389],[-88.28302,13.30695],[-88.28901,13.30143],[-88.28541,13.29496],[-88.28698,13.29103],[-88.29227,13.28649],[-88.29262,13.28315],[-88.29399,13.28297],[-88.29438,13.27524],[-88.29291,13.2714],[-88.28087,13.26045],[-88.28889,13.25546],[-88.29382,13.257],[-88.31904,13.25119],[-88.32228,13.26628],[-88.32885,13.279],[-88.32553,13.28849],[-88.29939,13.31393],[-88.29614,13.32349],[-88.30105,13.32989],[-88.29614,13.33783],[-88.30105,13.34415],[-88.30921,13.34738],[-88.31903,13.34099],[-88.32583,13.34212],[-88.355,13.34099],[-88.35334,13.35216],[-88.355,13.3601],[-88.36475,13.36327],[-88.3893,13.37914],[-88.38605,13.39348],[-88.38439,13.40935],[-88.38439,13.43478],[-88.38605,13.43956],[-88.39255,13.43478],[-88.40071,13.43324],[-88.40071,13.44272],[-88.39089,13.46021],[-88.38605,13.47454],[-88.38605,13.48563],[-88.38114,13.49202],[-88.37298,13.49518],[-88.37298,13.50312],[-88.38114,13.52376],[-88.38114,13.54441],[-88.39089,13.56828],[-88.39089,13.5873],[-88.38605,13.59531],[-88.37623,13.60324],[-88.37298,13.60955],[-88.37298,13.61433],[-88.38114,13.62387],[-88.38439,13.63342],[-88.37782,13.64451],[-88.37782,13.65721],[-88.38273,13.6683],[-88.38764,13.66675],[-88.39746,13.66037],[-88.40887,13.66037],[-88.42361,13.66675],[-88.43502,13.67784],[-88.44975,13.69693],[-88.46282,13.69531],[-88.47389,13.6894],[-88.4873,13.69693],[-88.49553,13.70593]]]}},{"type":"Feature","properties":{"n":"La Libertad","lat":13.738174466176465,"lon":-89.35461339176469},"geometry":{"type":"Polygon","coordinates":[[[-89.63162,13.51777],[-89.61944,13.51085],[-89.61113,13.50789],[-89.57487,13.50444],[-89.53953,13.49664],[-89.52442,13.49184],[-89.50884,13.49249],[-89.49372,13.49574],[-89.42344,13.48986],[-89.41742,13.4939],[-89.40137,13.49237],[-89.39655,13.49321],[-89.39103,13.49112],[-89.38819,13.49201],[-89.36959,13.49004],[-89.35652,13.48327],[-89.34854,13.48485],[-89.32882,13.47892],[-89.32584,13.47955],[-89.32107,13.4837],[-89.30467,13.48589],[-89.29309,13.48285],[-89.24948,13.46453],[-89.17275,13.42522],[-89.17127,13.42711],[-89.16892,13.42553],[-89.16717,13.42603],[-89.16622,13.43122],[-89.15661,13.45071],[-89.14812,13.45437],[-89.14783,13.46824],[-89.15542,13.46962],[-89.1563,13.47314],[-89.15795,13.47333],[-89.15815,13.4751],[-89.16013,13.47478],[-89.16043,13.47878],[-89.16217,13.48112],[-89.16164,13.48414],[-89.1634,13.4841],[-89.16206,13.48818],[-89.15907,13.4895],[-89.16012,13.49208],[-89.16127,13.49119],[-89.16526,13.49304],[-89.16917,13.49054],[-89.17179,13.49149],[-89.17271,13.48855],[-89.17158,13.48495],[-89.17831,13.48359],[-89.18136,13.47899],[-89.18174,13.47562],[-89.19379,13.47881],[-89.20729,13.47947],[-89.20821,13.48571],[-89.20607,13.49088],[-89.20847,13.49768],[-89.21186,13.49969],[-89.21529,13.49973],[-89.21439,13.50316],[-89.2174,13.5117],[-89.21585,13.51571],[-89.21967,13.51546],[-89.22097,13.52025],[-89.22439,13.52234],[-89.22551,13.52556],[-89.22473,13.52865],[-89.23005,13.53305],[-89.23241,13.53743],[-89.23036,13.54283],[-89.23083,13.54552],[-89.22581,13.55178],[-89.22416,13.55841],[-89.22121,13.56261],[-89.22168,13.56952],[-89.21958,13.57864],[-89.22099,13.57891],[-89.22211,13.58191],[-89.2264,13.58394],[-89.23164,13.59047],[-89.23158,13.59476],[-89.22628,13.60477],[-89.22654,13.60757],[-89.22814,13.60894],[-89.22677,13.61227],[-89.22823,13.61711],[-89.22677,13.61933],[-89.22346,13.62015],[-89.22123,13.62714],[-89.22387,13.633],[-89.23506,13.63392],[-89.23475,13.63612],[-89.24267,13.63573],[-89.24356,13.64153],[-89.23765,13.65706],[-89.23194,13.65804],[-89.22916,13.65594],[-89.22474,13.66205],[-89.22671,13.6648],[-89.23203,13.68185],[-89.23022,13.68319],[-89.23902,13.68356],[-89.24603,13.68107],[-89.24686,13.68794],[-89.24891,13.69063],[-89.25562,13.69448],[-89.26117,13.70946],[-89.27586,13.7097],[-89.27672,13.71274],[-89.27457,13.71306],[-89.27554,13.71529],[-89.27458,13.71905],[-89.27123,13.72257],[-89.27052,13.72838],[-89.26488,13.73474],[-89.26488,13.74067],[-89.26329,13.74356],[-89.26504,13.74706],[-89.28594,13.73725],[-89.27003,13.75183],[-89.26991,13.75565],[-89.26479,13.75632],[-89.26419,13.7581],[-89.26326,13.75733],[-89.26154,13.76705],[-89.26276,13.77987],[-89.26037,13.79181],[-89.26192,13.80057],[-89.26064,13.80418],[-89.26414,13.80537],[-89.26414,13.81215],[-89.25468,13.82158],[-89.24897,13.84124],[-89.24459,13.84886],[-89.24086,13.86508],[-89.23805,13.88954],[-89.23544,13.89666],[-89.23436,13.92016],[-89.21915,13.91848],[-89.21844,13.93191],[-89.22318,13.94219],[-89.23742,13.94134],[-89.24699,13.94431],[-89.26324,13.95313],[-89.2664,13.95363],[-89.25605,13.96469],[-89.26107,13.96543],[-89.26121,13.96959],[-89.26487,13.9722],[-89.26619,13.97579],[-89.27041,13.97492],[-89.27114,13.97703],[-89.27354,13.97701],[-89.27284,13.9797],[-89.27808,13.98175],[-89.27938,13.98368],[-89.28109,13.98332],[-89.28177,13.97824],[-89.28625,13.98108],[-89.28767,13.98723],[-89.29118,13.99061],[-89.28953,13.99237],[-89.29284,13.99404],[-89.28989,13.99988],[-89.29224,14.00176],[-89.29167,14.00739],[-89.28867,14.0073],[-89.2852,14.00995],[-89.28675,14.01501],[-89.28354,14.01837],[-89.28467,14.02269],[-89.28264,14.0245],[-89.28356,14.02672],[-89.28076,14.02929],[-89.27918,14.02635],[-89.27648,14.03286],[-89.27263,14.0336],[-89.2711,14.03583],[-89.27417,14.03564],[-89.27475,14.03673],[-89.27078,14.03795],[-89.2656,14.04241],[-89.26769,14.04463],[-89.27086,14.04413],[-89.27381,14.03781],[-89.27651,14.04105],[-89.27719,14.04715],[-89.28383,14.05123],[-89.2881,14.04555],[-89.29328,14.04699],[-89.30324,14.04515],[-89.30522,14.05472],[-89.30732,14.05766],[-89.30562,14.06335],[-89.30889,14.06473],[-89.32021,14.06414],[-89.32811,14.06091],[-89.33459,14.05127],[-89.33701,14.05006],[-89.34702,14.04756],[-89.35705,14.05039],[-89.36427,14.04377],[-89.37066,14.02499],[-89.37357,14.02604],[-89.37689,14.03033],[-89.38362,14.02758],[-89.38359,14.02272],[-89.39783,13.99069],[-89.39903,13.98448],[-89.39553,13.97609],[-89.39608,13.97448],[-89.39359,13.97217],[-89.39188,13.95471],[-89.39401,13.95425],[-89.39899,13.94912],[-89.40113,13.95038],[-89.40955,13.9473],[-89.4113,13.94407],[-89.41632,13.9409],[-89.42416,13.93263],[-89.42646,13.93164],[-89.43004,13.93348],[-89.43379,13.93027],[-89.43932,13.92931],[-89.44561,13.9241],[-89.45235,13.91695],[-89.45239,13.91103],[-89.4565,13.89928],[-89.45567,13.89868],[-89.45887,13.89325],[-89.45441,13.89199],[-89.45206,13.87913],[-89.45038,13.87912],[-89.45,13.86112],[-89.45175,13.85849],[-89.45109,13.85464],[-89.44996,13.85402],[-89.44656,13.85625],[-89.45148,13.84486],[-89.45098,13.8426],[-89.44881,13.84124],[-89.44994,13.83272],[-89.45107,13.8323],[-89.45044,13.83003],[-89.45701,13.83393],[-89.45951,13.83063],[-89.45751,13.82379],[-89.45318,13.81878],[-89.45325,13.81347],[-89.458,13.81151],[-89.45872,13.81256],[-89.46056,13.8108],[-89.4606,13.8126],[-89.46205,13.8107],[-89.4634,13.81197],[-89.46488,13.80678],[-89.4663,13.79368],[-89.46344,13.79323],[-89.46584,13.78224],[-89.46503,13.77511],[-89.46249,13.77508],[-89.46462,13.76865],[-89.44419,13.76371],[-89.44459,13.74394],[-89.45843,13.74312],[-89.46881,13.74872],[-89.46961,13.74587],[-89.47484,13.74899],[-89.47877,13.74945],[-89.47764,13.7452],[-89.4792,13.74519],[-89.48039,13.74079],[-89.47858,13.73556],[-89.4804,13.73638],[-89.48616,13.73311],[-89.48865,13.72741],[-89.49318,13.72477],[-89.49518,13.71871],[-89.49405,13.71635],[-89.49584,13.71423],[-89.49721,13.71605],[-89.49894,13.7159],[-89.49995,13.71326],[-89.503,13.71253],[-89.5058,13.70987],[-89.50725,13.7104],[-89.51471,13.70722],[-89.51784,13.70397],[-89.52382,13.70596],[-89.52679,13.70125],[-89.52606,13.69919],[-89.52865,13.69633],[-89.52757,13.69158],[-89.52512,13.69084],[-89.52779,13.68941],[-89.52607,13.68939],[-89.52555,13.68514],[-89.52786,13.67651],[-89.52492,13.6735],[-89.52618,13.66933],[-89.51986,13.66537],[-89.5208,13.66253],[-89.5184,13.66123],[-89.5235,13.65861],[-89.5255,13.65859],[-89.52717,13.66073],[-89.53175,13.65959],[-89.53394,13.66044],[-89.53679,13.65837],[-89.53117,13.65205],[-89.52858,13.65548],[-89.52106,13.64395],[-89.5256,13.63957],[-89.53394,13.62572],[-89.54794,13.61122],[-89.54651,13.61119],[-89.54781,13.60914],[-89.55212,13.61445],[-89.55495,13.61236],[-89.55844,13.6045],[-89.55824,13.60178],[-89.55271,13.60331],[-89.55162,13.59886],[-89.54977,13.59783],[-89.54793,13.59875],[-89.5486,13.59695],[-89.55333,13.59456],[-89.55605,13.58914],[-89.55962,13.58584],[-89.56425,13.58619],[-89.57555,13.57474],[-89.57854,13.56938],[-89.57017,13.57326],[-89.57706,13.56724],[-89.58023,13.56859],[-89.58504,13.56521],[-89.59697,13.55368],[-89.60238,13.54585],[-89.60216,13.54375],[-89.62898,13.52143],[-89.63162,13.51777]]]}},{"type":"Feature","properties":{"n":"Ahuachapán","lat":13.893278732258066,"lon":-89.89629106532254},"geometry":{"type":"Polygon","coordinates":[[[-89.73506,14.03443],[-89.73773,14.03166],[-89.74129,14.03564],[-89.74603,14.03631],[-89.75313,14.03458],[-89.75411,14.03214],[-89.75656,14.03383],[-89.75812,14.03181],[-89.75929,14.03421],[-89.76484,14.03366],[-89.76552,14.035],[-89.77466,14.03251],[-89.77591,14.03437],[-89.77885,14.03356],[-89.77911,14.03593],[-89.78625,14.03891],[-89.78839,14.04168],[-89.78916,14.047],[-89.79164,14.04874],[-89.79482,14.04768],[-89.79938,14.05369],[-89.8007,14.05208],[-89.80524,14.05442],[-89.80569,14.05715],[-89.80943,14.05578],[-89.80995,14.05732],[-89.81628,14.06098],[-89.81652,14.06311],[-89.82226,14.06161],[-89.82259,14.06357],[-89.82489,14.06273],[-89.827,14.05924],[-89.82764,14.06143],[-89.83283,14.06195],[-89.83401,14.05994],[-89.83668,14.05973],[-89.83679,14.05657],[-89.83982,14.0582],[-89.84624,14.05643],[-89.85635,14.05834],[-89.85722,14.05273],[-89.86097,14.0473],[-89.85991,14.04395],[-89.86147,14.04119],[-89.86504,14.04175],[-89.86956,14.04038],[-89.87166,14.04242],[-89.87826,14.04178],[-89.89137,14.0436],[-89.89837,14.03916],[-89.89911,14.03443],[-89.90533,14.03111],[-89.90415,14.02319],[-89.90752,14.01334],[-89.91455,14.0109],[-89.91898,14.01295],[-89.92059,14.00685],[-89.9281,14.00649],[-89.92761,14.00254],[-89.92971,14.00036],[-89.93217,13.9933],[-89.93429,13.99285],[-89.93653,13.99553],[-89.93865,13.98691],[-89.94297,13.98673],[-89.9439,13.98446],[-89.94787,13.98482],[-89.94879,13.98244],[-89.95346,13.97928],[-89.95985,13.97823],[-89.9618,13.97013],[-89.9688,13.9653],[-89.9753,13.9649],[-89.97739,13.95998],[-89.98043,13.96146],[-89.98764,13.95715],[-89.99022,13.95802],[-89.99298,13.95424],[-89.99587,13.9562],[-90.00002,13.95589],[-90.00116,13.95172],[-90.008,13.94858],[-90.00868,13.94435],[-90.01187,13.94322],[-90.01487,13.94433],[-90.01833,13.93977],[-90.02324,13.93904],[-90.02556,13.93562],[-90.02692,13.92952],[-90.03064,13.92832],[-90.02748,13.9212],[-90.02803,13.91948],[-90.02973,13.91824],[-90.03642,13.91814],[-90.03765,13.91672],[-90.03534,13.90326],[-90.0361,13.89744],[-90.03892,13.89713],[-90.04036,13.89373],[-90.04807,13.89371],[-90.05416,13.89017],[-90.06713,13.88748],[-90.06626,13.88097],[-90.08127,13.87704],[-90.08178,13.8701],[-90.08705,13.8613],[-90.09813,13.85915],[-90.09801,13.85297],[-90.09487,13.84793],[-90.09913,13.84475],[-90.10277,13.83847],[-90.11218,13.83458],[-90.11267,13.82418],[-90.10732,13.82063],[-90.10419,13.81571],[-90.10696,13.80679],[-90.11462,13.80604],[-90.11134,13.8003],[-90.11713,13.79817],[-90.11307,13.79528],[-90.11786,13.78765],[-90.11676,13.78197],[-90.11307,13.77731],[-90.10872,13.77986],[-90.10769,13.78246],[-90.10487,13.78021],[-90.10394,13.77367],[-90.09661,13.76646],[-90.10023,13.76365],[-90.10065,13.75792],[-90.09756,13.75658],[-90.09279,13.75757],[-90.09305,13.75367],[-90.10124,13.74887],[-90.10219,13.74602],[-90.10113,13.74234],[-90.10336,13.74012],[-90.10582,13.74284],[-90.10963,13.74393],[-90.11548,13.74034],[-90.1159,13.74241],[-90.1138,13.74456],[-90.11727,13.74947],[-90.11891,13.74858],[-90.12056,13.74383],[-90.12489,13.74259],[-90.12912,13.74673],[-90.13447,13.74744],[-90.13771,13.7411],[-89.9628,13.66343],[-89.95976,13.66788],[-89.95632,13.66853],[-89.95535,13.67158],[-89.93513,13.68875],[-89.93393,13.69364],[-89.93073,13.69457],[-89.93012,13.69926],[-89.92837,13.70012],[-89.92717,13.70362],[-89.9184,13.70558],[-89.91663,13.70723],[-89.91665,13.71099],[-89.91326,13.71004],[-89.90746,13.71182],[-89.9044,13.71522],[-89.90235,13.71388],[-89.89996,13.71462],[-89.89887,13.71153],[-89.88647,13.69659],[-89.86417,13.68553],[-89.85949,13.68107],[-89.84867,13.67868],[-89.81991,13.68711],[-89.82138,13.69069],[-89.81788,13.69581],[-89.81875,13.70425],[-89.81689,13.70584],[-89.81551,13.72404],[-89.81206,13.72359],[-89.8112,13.72507],[-89.81108,13.72903],[-89.80914,13.73165],[-89.80966,13.73837],[-89.80885,13.7398],[-89.8057,13.73898],[-89.80599,13.74402],[-89.80241,13.74938],[-89.80085,13.749],[-89.80066,13.75103],[-89.79729,13.75028],[-89.79703,13.7518],[-89.79255,13.75205],[-89.791,13.76755],[-89.79256,13.77276],[-89.78875,13.799],[-89.78927,13.80369],[-89.78738,13.80567],[-89.78677,13.82165],[-89.77769,13.83414],[-89.77847,13.8375],[-89.77598,13.84823],[-89.7734,13.84821],[-89.77213,13.85061],[-89.774,13.8518],[-89.77323,13.85606],[-89.76926,13.8554],[-89.76759,13.85968],[-89.76886,13.86441],[-89.7716,13.86686],[-89.77307,13.87423],[-89.78054,13.88119],[-89.78329,13.88762],[-89.78753,13.89233],[-89.74701,13.90112],[-89.73629,13.9006],[-89.73504,13.9036],[-89.73105,13.90259],[-89.7296,13.90524],[-89.72596,13.90466],[-89.72026,13.92673],[-89.72053,13.93247],[-89.71609,13.93741],[-89.7147,13.94551],[-89.71155,13.94633],[-89.71183,13.94821],[-89.70643,13.94792],[-89.70705,13.95269],[-89.70464,13.96117],[-89.70573,13.9638],[-89.69722,13.97493],[-89.69889,13.98658],[-89.69619,13.98899],[-89.6954,13.99425],[-89.69629,13.99992],[-89.6985,14.00353],[-89.70511,14.00711],[-89.70829,14.00682],[-89.71325,14.01034],[-89.71563,14.00974],[-89.7167,14.01185],[-89.72305,14.01251],[-89.72276,14.01905],[-89.72632,14.02716],[-89.72548,14.03236],[-89.72703,14.0341],[-89.72966,14.03278],[-89.7301,14.03418],[-89.73499,14.03458],[-89.73506,14.03443]]]}},{"type":"Feature","properties":{"n":"Sonsonate","lat":13.72852699659574,"lon":-89.65362416425528},"geometry":{"type":"Polygon","coordinates":[[[-89.46516,13.7786],[-89.46905,13.77829],[-89.47266,13.78374],[-89.47916,13.7842],[-89.4769,13.7872],[-89.47402,13.78795],[-89.47833,13.78949],[-89.48095,13.78791],[-89.48288,13.79289],[-89.48153,13.79395],[-89.48572,13.7958],[-89.48471,13.7977],[-89.48801,13.79999],[-89.49844,13.80251],[-89.50458,13.80197],[-89.50561,13.80353],[-89.51166,13.80568],[-89.51621,13.80572],[-89.52387,13.81222],[-89.52262,13.81524],[-89.52389,13.816],[-89.5358,13.81165],[-89.56011,13.83428],[-89.56645,13.83512],[-89.59654,13.82984],[-89.59863,13.81432],[-89.60338,13.81535],[-89.6116,13.8118],[-89.61394,13.81253],[-89.61391,13.81159],[-89.61625,13.81575],[-89.62208,13.81503],[-89.62995,13.82103],[-89.63358,13.82083],[-89.63705,13.82271],[-89.64054,13.82235],[-89.64734,13.81825],[-89.65278,13.82193],[-89.64853,13.82939],[-89.6432,13.83287],[-89.63996,13.83779],[-89.64008,13.84032],[-89.63646,13.84285],[-89.63578,13.8463],[-89.6383,13.85206],[-89.63714,13.85485],[-89.6459,13.85744],[-89.64656,13.86121],[-89.65158,13.86654],[-89.65267,13.87036],[-89.66585,13.888],[-89.6742,13.89153],[-89.67387,13.89333],[-89.67913,13.8968],[-89.68382,13.8991],[-89.68644,13.89876],[-89.6905,13.90397],[-89.7112,13.89952],[-89.71421,13.90153],[-89.72131,13.90252],[-89.72257,13.90483],[-89.72737,13.90401],[-89.7296,13.90524],[-89.73105,13.90259],[-89.73504,13.9036],[-89.73629,13.9006],[-89.74701,13.90112],[-89.78753,13.89233],[-89.78329,13.88762],[-89.78054,13.88119],[-89.77307,13.87423],[-89.7716,13.86686],[-89.76886,13.86441],[-89.76759,13.85968],[-89.76926,13.8554],[-89.77323,13.85606],[-89.774,13.8518],[-89.77213,13.85061],[-89.7734,13.84821],[-89.77598,13.84823],[-89.77847,13.8375],[-89.77769,13.83414],[-89.78677,13.82165],[-89.78738,13.80567],[-89.78927,13.80369],[-89.78875,13.799],[-89.79256,13.77276],[-89.791,13.76755],[-89.79255,13.75205],[-89.79703,13.7518],[-89.79729,13.75028],[-89.80066,13.75103],[-89.80085,13.749],[-89.80241,13.74938],[-89.80599,13.74402],[-89.8057,13.73898],[-89.80885,13.7398],[-89.80966,13.73837],[-89.80914,13.73165],[-89.81108,13.72903],[-89.8112,13.72507],[-89.81206,13.72359],[-89.81551,13.72404],[-89.81689,13.70584],[-89.81875,13.70425],[-89.81788,13.69581],[-89.82138,13.69069],[-89.81991,13.68711],[-89.84867,13.67868],[-89.85949,13.68107],[-89.86417,13.68553],[-89.88647,13.69659],[-89.89887,13.71153],[-89.89996,13.71462],[-89.90235,13.71388],[-89.9044,13.71522],[-89.90746,13.71182],[-89.91326,13.71004],[-89.91665,13.71099],[-89.91663,13.70723],[-89.9184,13.70558],[-89.92717,13.70362],[-89.92837,13.70012],[-89.93012,13.69926],[-89.93073,13.69457],[-89.93393,13.69364],[-89.93513,13.68875],[-89.95535,13.67158],[-89.95632,13.66853],[-89.95976,13.66788],[-89.9628,13.66343],[-89.93316,13.64836],[-89.88778,13.62263],[-89.8519,13.59862],[-89.84272,13.59084],[-89.84156,13.58746],[-89.84255,13.5763],[-89.83703,13.56339],[-89.82911,13.5354],[-89.82254,13.52616],[-89.80948,13.51884],[-89.7933,13.52098],[-89.77365,13.52705],[-89.72182,13.52404],[-89.70129,13.53148],[-89.68683,13.5334],[-89.66551,13.53107],[-89.66311,13.52732],[-89.64734,13.5238],[-89.63162,13.51777],[-89.62424,13.52615],[-89.62036,13.52954],[-89.61889,13.52875],[-89.60798,13.54006],[-89.60216,13.54375],[-89.60238,13.54585],[-89.59697,13.55368],[-89.58504,13.56521],[-89.58023,13.56859],[-89.57706,13.56724],[-89.57017,13.57326],[-89.57854,13.56938],[-89.57555,13.57474],[-89.56425,13.58619],[-89.55962,13.58584],[-89.55605,13.58914],[-89.55333,13.59456],[-89.5486,13.59695],[-89.54793,13.59875],[-89.54977,13.59783],[-89.55162,13.59886],[-89.55271,13.60331],[-89.55824,13.60178],[-89.55844,13.6045],[-89.55495,13.61236],[-89.55212,13.61445],[-89.54781,13.60914],[-89.54651,13.61119],[-89.54794,13.61122],[-89.53394,13.62572],[-89.5256,13.63957],[-89.52106,13.64395],[-89.52858,13.65548],[-89.53117,13.65205],[-89.53679,13.65837],[-89.53394,13.66044],[-89.53175,13.65959],[-89.52717,13.66073],[-89.5255,13.65859],[-89.5235,13.65861],[-89.5184,13.66123],[-89.5208,13.66253],[-89.51986,13.66537],[-89.52618,13.66933],[-89.52492,13.6735],[-89.52786,13.67651],[-89.52555,13.68514],[-89.52607,13.68939],[-89.52779,13.68941],[-89.52512,13.69084],[-89.52757,13.69158],[-89.52865,13.69633],[-89.52606,13.69919],[-89.52679,13.70125],[-89.52382,13.70596],[-89.51784,13.70397],[-89.51471,13.70722],[-89.50725,13.7104],[-89.5058,13.70987],[-89.503,13.71253],[-89.49995,13.71326],[-89.49894,13.7159],[-89.49721,13.71605],[-89.49584,13.71423],[-89.49405,13.71635],[-89.49518,13.71871],[-89.49318,13.72477],[-89.48865,13.72741],[-89.48616,13.73311],[-89.4804,13.73638],[-89.47858,13.73556],[-89.48039,13.74079],[-89.4792,13.74519],[-89.47764,13.7452],[-89.47877,13.74945],[-89.47484,13.74899],[-89.46961,13.74587],[-89.46881,13.74872],[-89.45843,13.74312],[-89.44459,13.74394],[-89.44419,13.76371],[-89.46456,13.76823],[-89.46249,13.77508],[-89.46503,13.77511],[-89.46504,13.77837],[-89.46516,13.7786]]]}},{"type":"Feature","properties":{"n":"San Vicente","lat":13.589433378544063,"lon":-88.72996219885054},"geometry":{"type":"Polygon","coordinates":[[[-88.9,13.66901],[-88.8983,13.66133],[-88.88931,13.65114],[-88.89447,13.63265],[-88.8922,13.61986],[-88.89758,13.6156],[-88.89221,13.60001],[-88.88125,13.60095],[-88.84726,13.59146],[-88.83802,13.59661],[-88.83434,13.57607],[-88.82631,13.56566],[-88.82676,13.55301],[-88.82216,13.54369],[-88.81316,13.53288],[-88.81542,13.52279],[-88.81462,13.51834],[-88.8179,13.51489],[-88.81882,13.50862],[-88.82425,13.50281],[-88.82532,13.49937],[-88.82341,13.49436],[-88.82678,13.48352],[-88.82459,13.48014],[-88.82218,13.46786],[-88.82496,13.46235],[-88.8233,13.45921],[-88.82069,13.45778],[-88.81891,13.44515],[-88.8111,13.43955],[-88.80598,13.43914],[-88.8035,13.42749],[-88.79732,13.42335],[-88.79511,13.4181],[-88.79336,13.41813],[-88.79188,13.41575],[-88.78923,13.41802],[-88.78717,13.4174],[-88.78661,13.41252],[-88.78463,13.4111],[-88.78547,13.40647],[-88.78,13.39946],[-88.78391,13.39249],[-88.78095,13.38949],[-88.78228,13.38768],[-88.78098,13.3793],[-88.78251,13.37523],[-88.78634,13.37129],[-88.78538,13.37084],[-88.78604,13.36447],[-88.78804,13.36287],[-88.78767,13.36032],[-88.79359,13.35632],[-88.8034,13.35376],[-88.80623,13.34481],[-88.80471,13.3394],[-88.79342,13.32866],[-88.79256,13.32315],[-88.7995,13.31771],[-88.80113,13.31441],[-88.80543,13.31238],[-88.81103,13.31203],[-88.81323,13.31008],[-88.81528,13.31094],[-88.81631,13.3073],[-88.82451,13.30175],[-88.82514,13.30022],[-88.82357,13.29742],[-88.82496,13.29426],[-88.82666,13.29126],[-88.83169,13.28789],[-88.8323,13.28383],[-88.83008,13.28153],[-88.83312,13.28087],[-88.83369,13.27917],[-88.83188,13.2733],[-88.83586,13.2721],[-88.8339,13.26362],[-88.83852,13.26329],[-88.84426,13.27065],[-88.85576,13.27295],[-88.85603,13.27088],[-88.83361,13.25814],[-88.82096,13.25577],[-88.81178,13.25193],[-88.81392,13.26442],[-88.80745,13.27241],[-88.80053,13.27867],[-88.79344,13.2814],[-88.77625,13.2926],[-88.77042,13.29908],[-88.75191,13.31192],[-88.74374,13.32436],[-88.72554,13.33503],[-88.72164,13.33904],[-88.72225,13.34648],[-88.73054,13.35882],[-88.73046,13.36954],[-88.72075,13.38925],[-88.71818,13.40682],[-88.71039,13.41738],[-88.69736,13.42588],[-88.69064,13.4506],[-88.68677,13.45442],[-88.67878,13.45841],[-88.67655,13.46229],[-88.67875,13.47531],[-88.67675,13.4794],[-88.6761,13.48879],[-88.67275,13.4986],[-88.67122,13.51583],[-88.66585,13.52693],[-88.66594,13.53197],[-88.66946,13.54031],[-88.66535,13.54773],[-88.65908,13.55265],[-88.64967,13.54868],[-88.64483,13.55338],[-88.6434,13.55599],[-88.6439,13.56469],[-88.63898,13.56964],[-88.63558,13.57006],[-88.63368,13.57324],[-88.633,13.57639],[-88.63474,13.58315],[-88.63186,13.58712],[-88.62727,13.58706],[-88.62087,13.58325],[-88.61791,13.58343],[-88.60758,13.58751],[-88.60026,13.58685],[-88.58999,13.5891],[-88.58208,13.59408],[-88.57161,13.59765],[-88.56733,13.60389],[-88.56767,13.61025],[-88.56501,13.61594],[-88.56077,13.62202],[-88.55512,13.62413],[-88.55258,13.62728],[-88.5511,13.63866],[-88.5452,13.64225],[-88.53806,13.65126],[-88.5257,13.65695],[-88.5242,13.66212],[-88.52201,13.66414],[-88.49965,13.67528],[-88.49373,13.68024],[-88.48595,13.69283],[-88.50034,13.71279],[-88.50175,13.717],[-88.50947,13.72089],[-88.51821,13.71933],[-88.52392,13.72116],[-88.52657,13.73404],[-88.52746,13.74912],[-88.53514,13.74937],[-88.5402,13.74628],[-88.54269,13.74678],[-88.54834,13.74399],[-88.56404,13.74411],[-88.5664,13.7478],[-88.57256,13.74234],[-88.57878,13.74547],[-88.58453,13.74243],[-88.59031,13.74268],[-88.59185,13.7491],[-88.58934,13.75116],[-88.59722,13.75344],[-88.60104,13.7607],[-88.60084,13.7625],[-88.59816,13.76381],[-88.59653,13.77008],[-88.60005,13.77029],[-88.60387,13.76744],[-88.60938,13.76737],[-88.61215,13.76925],[-88.6203,13.77052],[-88.62432,13.77619],[-88.63153,13.78071],[-88.63384,13.77915],[-88.64496,13.7814],[-88.64944,13.78646],[-88.65236,13.78751],[-88.65277,13.79109],[-88.65779,13.79176],[-88.66084,13.79595],[-88.665,13.79042],[-88.67288,13.78657],[-88.67496,13.78751],[-88.67571,13.79071],[-88.6779,13.78728],[-88.6821,13.78617],[-88.68373,13.78817],[-88.68719,13.78903],[-88.68813,13.79207],[-88.69206,13.79347],[-88.69416,13.79005],[-88.69755,13.7908],[-88.69981,13.78976],[-88.70139,13.79126],[-88.70892,13.78525],[-88.71373,13.78853],[-88.71382,13.79055],[-88.71525,13.78986],[-88.71508,13.78801],[-88.71927,13.78805],[-88.7204,13.79059],[-88.72279,13.79172],[-88.72364,13.79634],[-88.72551,13.79851],[-88.72742,13.79836],[-88.72725,13.79411],[-88.72877,13.79351],[-88.73924,13.79745],[-88.74083,13.79653],[-88.74311,13.79909],[-88.74806,13.79832],[-88.74858,13.80226],[-88.75173,13.7958],[-88.75482,13.79532],[-88.75602,13.79032],[-88.76066,13.78938],[-88.7621,13.79159],[-88.76984,13.79236],[-88.77834,13.78634],[-88.78418,13.78536],[-88.78973,13.779],[-88.79177,13.7803],[-88.79184,13.77844],[-88.79411,13.77725],[-88.79482,13.77813],[-88.79748,13.77652],[-88.80175,13.77659],[-88.80398,13.77448],[-88.80688,13.77495],[-88.80876,13.77732],[-88.81284,13.77499],[-88.81325,13.77758],[-88.81752,13.77829],[-88.81747,13.77952],[-88.82181,13.77728],[-88.82377,13.77877],[-88.82843,13.77903],[-88.82922,13.78232],[-88.83258,13.77976],[-88.83624,13.78028],[-88.84137,13.7788],[-88.84532,13.78017],[-88.85578,13.77576],[-88.85994,13.7708],[-88.86558,13.77053],[-88.85851,13.76287],[-88.86176,13.75018],[-88.86176,13.73587],[-88.87158,13.72156],[-88.87483,13.71047],[-88.86667,13.69139],[-88.87158,13.68823],[-88.88299,13.68823],[-88.89281,13.67398],[-88.9,13.66901]]]}},{"type":"Feature","properties":{"n":"San Miguel","lat":13.562419046223566,"lon":-88.26425707794559},"geometry":{"type":"Polygon","coordinates":[[[-88.12157,13.16708],[-88.12085,13.16856],[-88.11892,13.16815],[-88.119,13.17145],[-88.11576,13.17257],[-88.11214,13.17296],[-88.11141,13.1714],[-88.10972,13.17275],[-88.09206,13.17202],[-88.09187,13.18382],[-88.07255,13.22963],[-88.07607,13.2478],[-88.05243,13.2467],[-88.03749,13.24942],[-88.03375,13.30277],[-88.04135,13.31911],[-88.03821,13.32075],[-88.03344,13.32888],[-88.03212,13.33507],[-88.02704,13.33358],[-88.02798,13.33717],[-88.02503,13.34336],[-88.02868,13.34467],[-88.03184,13.35284],[-88.03607,13.35841],[-88.04613,13.3652],[-88.04518,13.36761],[-88.03162,13.3709],[-88.0301,13.37811],[-88.0324,13.3806],[-88.03155,13.38316],[-88.03273,13.38516],[-88.02994,13.38933],[-88.02767,13.38896],[-88.02769,13.39349],[-88.0229,13.40164],[-88.02112,13.4021],[-88.01995,13.40085],[-88.01924,13.40421],[-88.0448,13.42004],[-88.04136,13.42816],[-88.04462,13.4691],[-88.02244,13.49746],[-88.02402,13.50226],[-88.02616,13.50253],[-88.01997,13.5098],[-88.02461,13.54941],[-88.02765,13.55985],[-88.02394,13.56607],[-88.03618,13.56732],[-88.03946,13.56316],[-88.07469,13.55207],[-88.09145,13.55626],[-88.09818,13.55171],[-88.10472,13.54412],[-88.11039,13.55849],[-88.12721,13.57153],[-88.13376,13.57322],[-88.1326,13.57485],[-88.13792,13.57608],[-88.1403,13.58487],[-88.13503,13.58814],[-88.13206,13.59423],[-88.13611,13.59945],[-88.13634,13.60167],[-88.13206,13.60195],[-88.13893,13.6083],[-88.13867,13.61106],[-88.14209,13.61218],[-88.13935,13.61509],[-88.14217,13.61808],[-88.14406,13.61594],[-88.14442,13.61713],[-88.1492,13.61792],[-88.14908,13.61634],[-88.17394,13.60797],[-88.17481,13.61699],[-88.17945,13.61952],[-88.18181,13.61794],[-88.1855,13.61829],[-88.18963,13.61453],[-88.20386,13.61524],[-88.20193,13.61653],[-88.1982,13.61592],[-88.19907,13.62075],[-88.22635,13.6309],[-88.23035,13.64841],[-88.24184,13.65933],[-88.24406,13.66857],[-88.25235,13.67245],[-88.2522,13.67474],[-88.25538,13.67802],[-88.26128,13.6725],[-88.26106,13.67416],[-88.26561,13.67878],[-88.27143,13.70411],[-88.26736,13.71798],[-88.26737,13.72625],[-88.26349,13.72872],[-88.25989,13.72725],[-88.25835,13.72927],[-88.25146,13.72819],[-88.23786,13.73133],[-88.23112,13.73493],[-88.22325,13.74464],[-88.22372,13.75829],[-88.2273,13.76578],[-88.23188,13.77039],[-88.23163,13.77207],[-88.23372,13.77202],[-88.23405,13.77325],[-88.23785,13.77181],[-88.24307,13.77397],[-88.24554,13.77355],[-88.2506,13.78386],[-88.25304,13.78388],[-88.25364,13.78715],[-88.26034,13.79508],[-88.26297,13.80182],[-88.26218,13.80836],[-88.27639,13.8254],[-88.26763,13.83173],[-88.25119,13.83279],[-88.24208,13.84652],[-88.25926,13.8617],[-88.25533,13.87836],[-88.25639,13.89074],[-88.2627,13.91894],[-88.26843,13.91257],[-88.27174,13.91411],[-88.27547,13.91073],[-88.27628,13.9116],[-88.28094,13.90931],[-88.28271,13.91178],[-88.28933,13.91451],[-88.29161,13.91168],[-88.29751,13.91061],[-88.30275,13.90539],[-88.30483,13.90594],[-88.30713,13.90234],[-88.30955,13.90387],[-88.31029,13.90253],[-88.31345,13.90216],[-88.31705,13.89784],[-88.31564,13.89228],[-88.31734,13.8899],[-88.32349,13.89204],[-88.32686,13.89136],[-88.32732,13.8935],[-88.32866,13.8938],[-88.33305,13.89151],[-88.34141,13.89634],[-88.34537,13.89608],[-88.34969,13.89121],[-88.34965,13.88042],[-88.35081,13.87985],[-88.35155,13.87502],[-88.35654,13.87024],[-88.36244,13.86958],[-88.36966,13.87455],[-88.3747,13.87974],[-88.3762,13.88508],[-88.38499,13.88517],[-88.39467,13.88112],[-88.40302,13.88295],[-88.40895,13.87966],[-88.41404,13.87896],[-88.41868,13.88577],[-88.42338,13.87953],[-88.4264,13.87837],[-88.43018,13.87933],[-88.43234,13.87733],[-88.43395,13.87285],[-88.43625,13.87159],[-88.43913,13.85983],[-88.44093,13.85982],[-88.44369,13.8633],[-88.44872,13.86439],[-88.45057,13.86417],[-88.4509,13.85998],[-88.45242,13.85908],[-88.45806,13.86167],[-88.46141,13.86075],[-88.46588,13.86298],[-88.4652,13.85572],[-88.46722,13.84863],[-88.46902,13.84912],[-88.47194,13.85441],[-88.48384,13.85844],[-88.48624,13.86092],[-88.49167,13.86017],[-88.49705,13.85081],[-88.49398,13.8455],[-88.50081,13.83494],[-88.49753,13.82123],[-88.50053,13.81781],[-88.51218,13.81014],[-88.51598,13.80366],[-88.51589,13.80039],[-88.51001,13.79347],[-88.50896,13.7878],[-88.51477,13.78451],[-88.51746,13.77938],[-88.52222,13.77536],[-88.52853,13.76625],[-88.52657,13.73404],[-88.52392,13.72116],[-88.51821,13.71933],[-88.50947,13.72089],[-88.50175,13.717],[-88.49553,13.70593],[-88.4873,13.69693],[-88.47389,13.6894],[-88.46282,13.69531],[-88.44975,13.69693],[-88.43502,13.67784],[-88.42361,13.66675],[-88.40887,13.66037],[-88.39746,13.66037],[-88.38764,13.66675],[-88.38273,13.6683],[-88.37782,13.65721],[-88.37782,13.64451],[-88.38439,13.63342],[-88.38114,13.62387],[-88.37298,13.61433],[-88.37298,13.60955],[-88.37623,13.60324],[-88.38605,13.59531],[-88.39089,13.5873],[-88.39089,13.56828],[-88.38114,13.54441],[-88.38114,13.52376],[-88.37298,13.50312],[-88.37298,13.49518],[-88.38114,13.49202],[-88.38605,13.48563],[-88.38605,13.47454],[-88.39089,13.46021],[-88.40071,13.44272],[-88.40071,13.43324],[-88.39255,13.43478],[-88.38605,13.43956],[-88.38439,13.43478],[-88.38439,13.40935],[-88.38605,13.39348],[-88.3893,13.37914],[-88.36475,13.36327],[-88.355,13.3601],[-88.35334,13.35216],[-88.355,13.34099],[-88.32583,13.34212],[-88.31903,13.34099],[-88.30921,13.34738],[-88.30105,13.34415],[-88.29614,13.33783],[-88.30105,13.32989],[-88.29614,13.32349],[-88.29939,13.31393],[-88.32553,13.28849],[-88.32885,13.279],[-88.32228,13.26628],[-88.31904,13.25119],[-88.29382,13.257],[-88.28889,13.25546],[-88.28087,13.26045],[-88.29291,13.2714],[-88.29438,13.27524],[-88.29399,13.28297],[-88.29262,13.28315],[-88.29227,13.28649],[-88.28698,13.29103],[-88.28541,13.29496],[-88.28901,13.30143],[-88.28302,13.30695],[-88.27849,13.30389],[-88.27872,13.3078],[-88.27501,13.30759],[-88.27606,13.31104],[-88.27318,13.30961],[-88.27335,13.3116],[-88.26913,13.31317],[-88.26789,13.31575],[-88.26709,13.3133],[-88.26898,13.31078],[-88.26842,13.30955],[-88.266,13.30859],[-88.26467,13.31096],[-88.2587,13.31139],[-88.24678,13.30206],[-88.2449,13.30294],[-88.24494,13.30436],[-88.24185,13.30481],[-88.24176,13.30121],[-88.2346,13.30376],[-88.23728,13.30704],[-88.23412,13.307],[-88.23341,13.31062],[-88.2323,13.30587],[-88.23079,13.30751],[-88.22916,13.30312],[-88.22649,13.30395],[-88.227,13.30129],[-88.21883,13.28532],[-88.21943,13.2815],[-88.21125,13.27876],[-88.20753,13.27933],[-88.2053,13.2822],[-88.19687,13.28081],[-88.19275,13.27578],[-88.18964,13.27439],[-88.20851,13.26028],[-88.21085,13.26027],[-88.21251,13.25858],[-88.21339,13.25933],[-88.22272,13.24565],[-88.22331,13.23551],[-88.19524,13.23584],[-88.18968,13.23439],[-88.18555,13.23146],[-88.18232,13.23313],[-88.17437,13.23009],[-88.17236,13.2305],[-88.17095,13.22721],[-88.16396,13.22622],[-88.16597,13.21761],[-88.16276,13.21694],[-88.14044,13.19163],[-88.13385,13.1864],[-88.13242,13.18307],[-88.12378,13.17342],[-88.12157,13.16708]]]}},{"type":"Feature","properties":{"n":"La Unión","lat":13.567578191545183,"lon":-87.85914482448987},"geometry":{"type":"Polygon","coordinates":[[[-88.09169,13.17292],[-88.08889,13.17126],[-88.079,13.1701],[-88.07033,13.16973],[-88.06631,13.1714],[-88.05902,13.1688],[-87.97613,13.16176],[-87.96506,13.15343],[-87.94356,13.15396],[-87.90596,13.14399],[-87.88914,13.14595],[-87.88498,13.14863],[-87.88403,13.15126],[-87.88624,13.15943],[-87.89448,13.17107],[-87.90367,13.17495],[-87.90761,13.17846],[-87.90755,13.18688],[-87.8953,13.20209],[-87.88686,13.20702],[-87.87845,13.208],[-87.8718,13.21381],[-87.86017,13.22075],[-87.85395,13.22868],[-87.84026,13.22967],[-87.83232,13.23248],[-87.81177,13.25075],[-87.80653,13.25899],[-87.79598,13.26719],[-87.78514,13.28151],[-87.77619,13.28669],[-87.7739,13.28956],[-87.76968,13.28682],[-87.76586,13.28801],[-87.75503,13.28692],[-87.75009,13.28857],[-87.75144,13.27953],[-87.74878,13.27552],[-87.74586,13.27403],[-87.7341,13.27583],[-87.72945,13.28011],[-87.72955,13.28496],[-87.73224,13.28972],[-87.7376,13.29385],[-87.74391,13.29415],[-87.73833,13.2992],[-87.73915,13.30402],[-87.7452,13.30457],[-87.74963,13.30228],[-87.73777,13.31528],[-87.73844,13.32077],[-87.74606,13.32204],[-87.75278,13.31959],[-87.75636,13.32501],[-87.75837,13.32591],[-87.76934,13.32041],[-87.77234,13.31774],[-87.77474,13.30916],[-87.77469,13.29777],[-87.78323,13.30811],[-87.79636,13.31282],[-87.80585,13.3219],[-87.80942,13.32931],[-87.81658,13.3367],[-87.8333,13.34305],[-87.85998,13.35766],[-87.86287,13.36212],[-87.86197,13.36637],[-87.85645,13.37361],[-87.84962,13.37774],[-87.84508,13.38455],[-87.84517,13.38949],[-87.85123,13.39707],[-87.85091,13.40062],[-87.84861,13.40352],[-87.8381,13.40945],[-87.82163,13.40535],[-87.82166,13.40947],[-87.80777,13.41074],[-87.80601,13.40937],[-87.80014,13.41186],[-87.79392,13.41136],[-87.79034,13.41421],[-87.78862,13.42094],[-87.78421,13.42927],[-87.78268,13.42929],[-87.77943,13.4252],[-87.77585,13.42488],[-87.77315,13.43059],[-87.75799,13.44105],[-87.74753,13.43685],[-87.74407,13.4387],[-87.73989,13.44465],[-87.73369,13.44678],[-87.73032,13.44654],[-87.72382,13.44239],[-87.72098,13.44944],[-87.72185,13.45961],[-87.71643,13.46634],[-87.72162,13.47729],[-87.72127,13.48388],[-87.72375,13.49281],[-87.72024,13.50315],[-87.72077,13.50533],[-87.73705,13.51184],[-87.74627,13.50638],[-87.74911,13.50903],[-87.74965,13.51697],[-87.75418,13.5182],[-87.75721,13.51745],[-87.76246,13.50829],[-87.76561,13.50831],[-87.76983,13.51085],[-87.77346,13.51001],[-87.77843,13.51362],[-87.77717,13.51944],[-87.7917,13.52198],[-87.79345,13.524],[-87.79212,13.52631],[-87.78369,13.53042],[-87.78081,13.53535],[-87.78197,13.53782],[-87.78695,13.54133],[-87.78541,13.55479],[-87.77857,13.56689],[-87.78348,13.57002],[-87.77212,13.57489],[-87.77448,13.58304],[-87.77356,13.58463],[-87.76935,13.58591],[-87.7679,13.59566],[-87.76618,13.59794],[-87.7544,13.60391],[-87.75626,13.61812],[-87.75419,13.62404],[-87.75479,13.63725],[-87.75164,13.64482],[-87.75333,13.64875],[-87.75271,13.65655],[-87.75589,13.65749],[-87.75683,13.65962],[-87.75315,13.66796],[-87.7556,13.67168],[-87.75367,13.67807],[-87.75545,13.68928],[-87.74873,13.69396],[-87.74412,13.70409],[-87.74028,13.70836],[-87.73744,13.70887],[-87.73276,13.71521],[-87.73379,13.71969],[-87.73123,13.72191],[-87.73104,13.72695],[-87.7281,13.72987],[-87.72652,13.73492],[-87.72884,13.73846],[-87.73519,13.74088],[-87.73693,13.74816],[-87.73242,13.75027],[-87.72633,13.76316],[-87.72129,13.76512],[-87.71788,13.76825],[-87.71592,13.77847],[-87.71292,13.78499],[-87.70909,13.78932],[-87.71013,13.79412],[-87.70841,13.80402],[-87.7135,13.81168],[-87.71244,13.81542],[-87.71706,13.81776],[-87.71651,13.82],[-87.7226,13.8203],[-87.72535,13.82271],[-87.72778,13.82081],[-87.73122,13.82375],[-87.73282,13.82868],[-87.73531,13.83009],[-87.7422,13.83032],[-87.74645,13.8341],[-87.74644,13.83771],[-87.74483,13.84024],[-87.74672,13.84319],[-87.74548,13.84488],[-87.74634,13.85413],[-87.75252,13.86171],[-87.75434,13.86131],[-87.75645,13.86459],[-87.75887,13.86416],[-87.76283,13.86658],[-87.7635,13.86897],[-87.76701,13.8702],[-87.76793,13.87281],[-87.77148,13.87546],[-87.77429,13.87427],[-87.78425,13.8772],[-87.78595,13.88398],[-87.79592,13.88841],[-87.79899,13.89224],[-87.79919,13.89681],[-87.79497,13.90106],[-87.79424,13.90452],[-87.79556,13.90515],[-87.79639,13.91313],[-87.79989,13.92051],[-87.80534,13.92226],[-87.83113,13.91862],[-87.84251,13.90628],[-87.84434,13.89798],[-87.8539,13.89456],[-87.85914,13.89419],[-87.85948,13.89621],[-87.86143,13.89565],[-87.86451,13.89935],[-87.86842,13.89592],[-87.8739,13.89618],[-87.87751,13.90069],[-87.8822,13.90267],[-87.88348,13.90034],[-87.88853,13.90135],[-87.88977,13.89833],[-87.89869,13.90333],[-87.90463,13.89946],[-87.90706,13.90162],[-87.90941,13.89803],[-87.91239,13.89936],[-87.91431,13.89591],[-87.91198,13.8934],[-87.91382,13.89239],[-87.91637,13.8923],[-87.9177,13.89585],[-87.92158,13.89378],[-87.92008,13.8877],[-87.92188,13.88462],[-87.92432,13.88508],[-87.92671,13.88813],[-87.93036,13.88895],[-87.93354,13.89321],[-87.93721,13.89314],[-87.94185,13.87389],[-87.93873,13.87091],[-87.9322,13.86914],[-87.93158,13.86405],[-87.9342,13.86359],[-87.93551,13.86152],[-87.93523,13.85914],[-87.93936,13.85338],[-87.93914,13.84996],[-87.94607,13.84685],[-87.9317,13.82781],[-87.93023,13.81373],[-87.93412,13.79921],[-87.9493,13.78536],[-87.96164,13.76353],[-87.97268,13.75464],[-87.98175,13.73427],[-87.96932,13.73419],[-87.96705,13.73206],[-87.95972,13.73769],[-87.95415,13.73873],[-87.95327,13.74023],[-87.94725,13.73919],[-87.94631,13.73674],[-87.94746,13.73217],[-87.95305,13.71897],[-87.94792,13.70944],[-87.95172,13.68887],[-87.95176,13.67802],[-87.94784,13.67546],[-87.94955,13.67135],[-87.94665,13.67021],[-87.94792,13.6691],[-87.9478,13.66515],[-87.94609,13.66712],[-87.94283,13.66512],[-87.94891,13.65832],[-87.95032,13.65152],[-87.94528,13.6463],[-87.94087,13.63682],[-87.94331,13.63537],[-87.94872,13.63615],[-87.95233,13.63337],[-87.95523,13.63377],[-87.96296,13.60806],[-87.98854,13.59712],[-87.9835,13.59299],[-87.98031,13.58567],[-87.98355,13.58227],[-87.9821,13.57694],[-87.98468,13.57528],[-87.99076,13.58279],[-87.99582,13.57872],[-88.00151,13.58322],[-88.0012,13.58111],[-88.00462,13.57627],[-88.00323,13.57566],[-88.00366,13.57346],[-88.00221,13.57211],[-88.00612,13.57221],[-88.00795,13.56977],[-88.01354,13.56878],[-88.01575,13.56641],[-88.02394,13.56607],[-88.02765,13.56015],[-88.02461,13.54941],[-88.01997,13.5098],[-88.02616,13.50253],[-88.02402,13.50226],[-88.02247,13.49872],[-88.02328,13.49547],[-88.04462,13.4691],[-88.04136,13.42816],[-88.0448,13.42004],[-88.01924,13.40421],[-88.01995,13.40085],[-88.02112,13.4021],[-88.0229,13.40164],[-88.02769,13.39349],[-88.02767,13.38896],[-88.02994,13.38933],[-88.03273,13.38516],[-88.03155,13.38316],[-88.0324,13.3806],[-88.0301,13.37811],[-88.03162,13.3709],[-88.04518,13.36761],[-88.04613,13.3652],[-88.03607,13.35841],[-88.03184,13.35284],[-88.02868,13.34467],[-88.02503,13.34336],[-88.02798,13.33717],[-88.02704,13.33358],[-88.03212,13.33507],[-88.03344,13.32888],[-88.03821,13.32075],[-88.04135,13.31911],[-88.03375,13.30277],[-88.03749,13.24942],[-88.05243,13.2467],[-88.07607,13.2478],[-88.07255,13.22963],[-88.09187,13.18382],[-88.09167,13.17308],[-88.09169,13.17292]]]}},{"type":"Feature","properties":{"n":"Morazán","lat":13.79032243140495,"lon":-88.10067801157021},"geometry":{"type":"Polygon","coordinates":[[[-88.02394,13.56607],[-88.01575,13.56641],[-88.01354,13.56878],[-88.00795,13.56977],[-88.00612,13.57221],[-88.00229,13.57204],[-88.00366,13.57346],[-88.00323,13.57566],[-88.00462,13.57627],[-88.0012,13.58111],[-88.00151,13.58322],[-87.99582,13.57872],[-87.99076,13.58279],[-87.98468,13.57528],[-87.9821,13.57694],[-87.98355,13.58227],[-87.98031,13.58567],[-87.9835,13.59299],[-87.98854,13.59712],[-87.96296,13.60806],[-87.95523,13.63377],[-87.95233,13.63337],[-87.94872,13.63615],[-87.94331,13.63537],[-87.94087,13.63682],[-87.94528,13.6463],[-87.95032,13.65152],[-87.94891,13.65832],[-87.94283,13.66512],[-87.94609,13.66712],[-87.9478,13.66515],[-87.94792,13.6691],[-87.94665,13.67021],[-87.94955,13.67135],[-87.94784,13.67546],[-87.95176,13.67802],[-87.95172,13.68887],[-87.94792,13.70944],[-87.95305,13.71897],[-87.94746,13.73217],[-87.94631,13.73674],[-87.94725,13.73919],[-87.95327,13.74023],[-87.95415,13.73873],[-87.95972,13.73769],[-87.96705,13.73206],[-87.96932,13.73419],[-87.98175,13.73427],[-87.97268,13.75464],[-87.96164,13.76353],[-87.9493,13.78536],[-87.93412,13.79921],[-87.93023,13.81373],[-87.9317,13.82781],[-87.94607,13.84685],[-87.93914,13.84996],[-87.93936,13.85338],[-87.93523,13.85914],[-87.93551,13.86152],[-87.9342,13.86359],[-87.93158,13.86405],[-87.9322,13.86914],[-87.93873,13.87091],[-87.94185,13.87389],[-87.93721,13.89314],[-87.94057,13.89345],[-87.94365,13.89599],[-87.94752,13.8926],[-87.95145,13.89131],[-87.95365,13.89487],[-87.95732,13.89669],[-87.95919,13.9027],[-87.96377,13.89268],[-87.96871,13.89457],[-87.9755,13.88937],[-87.97782,13.88903],[-87.97865,13.88713],[-87.98584,13.88759],[-87.99809,13.87696],[-88.00525,13.87526],[-88.00661,13.87089],[-88.00915,13.87237],[-88.01478,13.87101],[-88.01335,13.87564],[-88.01634,13.88414],[-88.01519,13.88463],[-88.01653,13.88645],[-88.01518,13.88937],[-88.01734,13.89308],[-88.02014,13.89303],[-88.02522,13.89881],[-88.02648,13.90231],[-88.02865,13.90216],[-88.02824,13.90387],[-88.03373,13.91159],[-88.03296,13.91324],[-88.03559,13.91321],[-88.04359,13.9222],[-88.04447,13.92687],[-88.04679,13.92879],[-88.04589,13.93189],[-88.05727,13.94296],[-88.06003,13.94251],[-88.06369,13.94424],[-88.06546,13.95022],[-88.06551,13.95285],[-88.06382,13.95442],[-88.06516,13.95607],[-88.06479,13.96068],[-88.07296,13.97624],[-88.07273,13.99227],[-88.10641,14.00078],[-88.10817,13.99868],[-88.1143,13.99948],[-88.11601,13.99694],[-88.13719,13.98944],[-88.14157,13.99227],[-88.14434,13.99042],[-88.14904,13.99111],[-88.15153,13.987],[-88.1597,13.98355],[-88.16131,13.98482],[-88.16324,13.98367],[-88.16466,13.98631],[-88.16774,13.98627],[-88.16978,13.98456],[-88.17327,13.98493],[-88.17692,13.99023],[-88.17854,13.98821],[-88.18052,13.9893],[-88.18048,13.9917],[-88.18731,13.98986],[-88.18998,13.99218],[-88.19371,13.99213],[-88.19686,13.99423],[-88.19775,13.9969],[-88.20797,13.99667],[-88.21045,13.99376],[-88.21812,13.993],[-88.22008,13.99603],[-88.22629,13.9992],[-88.22903,13.99843],[-88.23012,13.99991],[-88.23282,13.99577],[-88.23815,13.99472],[-88.23825,13.99077],[-88.23441,13.98826],[-88.23639,13.978],[-88.23592,13.97069],[-88.23096,13.96318],[-88.21936,13.95358],[-88.22687,13.93782],[-88.23601,13.9392],[-88.25995,13.93745],[-88.2609,13.93885],[-88.2629,13.93702],[-88.26533,13.93713],[-88.26628,13.93447],[-88.26399,13.93051],[-88.26472,13.92858],[-88.26292,13.92715],[-88.26643,13.9243],[-88.26281,13.91999],[-88.25639,13.89074],[-88.25533,13.87836],[-88.25926,13.8617],[-88.24208,13.84652],[-88.25119,13.83279],[-88.26763,13.83173],[-88.27639,13.8254],[-88.26218,13.80836],[-88.26297,13.80182],[-88.26034,13.79508],[-88.25364,13.78715],[-88.25304,13.78388],[-88.2506,13.78386],[-88.24554,13.77355],[-88.24307,13.77397],[-88.23785,13.77181],[-88.23405,13.77325],[-88.23372,13.77202],[-88.23163,13.77207],[-88.23188,13.77039],[-88.2273,13.76578],[-88.22372,13.75829],[-88.22325,13.74464],[-88.23112,13.73493],[-88.23786,13.73133],[-88.25146,13.72819],[-88.25835,13.72927],[-88.25989,13.72725],[-88.26349,13.72872],[-88.26737,13.72625],[-88.26736,13.71798],[-88.27143,13.70411],[-88.26561,13.67878],[-88.26106,13.67416],[-88.26128,13.6725],[-88.25538,13.67802],[-88.2522,13.67474],[-88.25235,13.67245],[-88.24406,13.66857],[-88.24184,13.65933],[-88.23035,13.64841],[-88.22635,13.6309],[-88.19907,13.62075],[-88.1982,13.61592],[-88.20193,13.61653],[-88.20386,13.61524],[-88.18963,13.61453],[-88.1855,13.61829],[-88.18181,13.61794],[-88.17945,13.61952],[-88.17481,13.61699],[-88.17394,13.60797],[-88.14908,13.61634],[-88.1492,13.61792],[-88.14442,13.61713],[-88.14406,13.61594],[-88.14217,13.61808],[-88.13935,13.61509],[-88.14209,13.61218],[-88.13867,13.61106],[-88.13893,13.6083],[-88.13206,13.60195],[-88.13634,13.60167],[-88.13611,13.59945],[-88.13206,13.59423],[-88.13503,13.58814],[-88.1403,13.58487],[-88.13792,13.57608],[-88.1326,13.57485],[-88.13376,13.57322],[-88.12721,13.57153],[-88.11039,13.55849],[-88.10472,13.54412],[-88.09818,13.55171],[-88.09145,13.55626],[-88.07469,13.55207],[-88.03946,13.56316],[-88.03618,13.56732],[-88.02401,13.56617],[-88.02394,13.56607]]]}},{"type":"Feature","properties":{"n":"La Paz","lat":13.485553377272721,"lon":-88.95180409488634},"geometry":{"type":"Polygon","coordinates":[[[-89.04485,13.67087],[-89.08543,13.63794],[-89.0938,13.62772],[-89.10181,13.62353],[-89.1029,13.61396],[-89.10941,13.60617],[-89.11334,13.61155],[-89.11841,13.61414],[-89.12898,13.61077],[-89.15781,13.61],[-89.15527,13.60326],[-89.15587,13.59955],[-89.15187,13.59495],[-89.15203,13.58887],[-89.14739,13.58531],[-89.14709,13.58261],[-89.14427,13.58188],[-89.14434,13.57766],[-89.14116,13.57582],[-89.1352,13.56752],[-89.13425,13.56197],[-89.13765,13.5556],[-89.13557,13.55336],[-89.13453,13.54384],[-89.13496,13.54167],[-89.14044,13.53755],[-89.14563,13.53732],[-89.14441,13.53335],[-89.14091,13.52918],[-89.1457,13.5225],[-89.14415,13.52046],[-89.14789,13.51863],[-89.1469,13.51523],[-89.14477,13.51436],[-89.14677,13.51378],[-89.14765,13.51159],[-89.15677,13.50864],[-89.15885,13.49895],[-89.16138,13.49574],[-89.15898,13.48981],[-89.1633,13.48608],[-89.1634,13.4841],[-89.16164,13.48414],[-89.16217,13.48112],[-89.16043,13.47878],[-89.16013,13.47478],[-89.15815,13.4751],[-89.15795,13.47333],[-89.1563,13.47314],[-89.15542,13.46962],[-89.14783,13.46824],[-89.14812,13.45437],[-89.15661,13.45071],[-89.16622,13.43122],[-89.16717,13.42603],[-89.16892,13.42553],[-89.17127,13.42711],[-89.17275,13.42522],[-89.14331,13.41163],[-89.04923,13.35979],[-88.96307,13.32464],[-88.92776,13.30794],[-88.89367,13.28866],[-88.88657,13.28952],[-88.88061,13.28559],[-88.87814,13.28035],[-88.85603,13.27088],[-88.85566,13.2731],[-88.84439,13.27071],[-88.83892,13.26357],[-88.83428,13.26347],[-88.83386,13.26723],[-88.83586,13.2721],[-88.83188,13.2733],[-88.83369,13.27917],[-88.83312,13.28087],[-88.83008,13.28153],[-88.8323,13.28383],[-88.83169,13.28789],[-88.82666,13.29126],[-88.82496,13.29426],[-88.82357,13.29742],[-88.82514,13.30022],[-88.82451,13.30175],[-88.81631,13.3073],[-88.81528,13.31094],[-88.81323,13.31008],[-88.81103,13.31203],[-88.80543,13.31238],[-88.80113,13.31441],[-88.7995,13.31771],[-88.79256,13.32315],[-88.79342,13.32866],[-88.80471,13.3394],[-88.80623,13.34481],[-88.8034,13.35376],[-88.79359,13.35632],[-88.78767,13.36032],[-88.78804,13.36287],[-88.78604,13.36447],[-88.78538,13.37084],[-88.78634,13.37129],[-88.78251,13.37523],[-88.78098,13.3793],[-88.78228,13.38768],[-88.78095,13.38949],[-88.78391,13.39249],[-88.78,13.39946],[-88.78547,13.40647],[-88.78463,13.4111],[-88.78661,13.41252],[-88.78717,13.4174],[-88.78923,13.41802],[-88.79188,13.41575],[-88.79336,13.41813],[-88.79511,13.4181],[-88.79732,13.42335],[-88.8035,13.42749],[-88.80598,13.43914],[-88.8111,13.43955],[-88.81891,13.44515],[-88.82069,13.45778],[-88.8233,13.45921],[-88.82496,13.46235],[-88.82218,13.46786],[-88.82459,13.48014],[-88.82678,13.48352],[-88.82341,13.49436],[-88.82532,13.49937],[-88.82425,13.50281],[-88.81882,13.50862],[-88.8179,13.51489],[-88.81462,13.51834],[-88.81542,13.52279],[-88.81316,13.53288],[-88.82216,13.54369],[-88.82676,13.55301],[-88.82631,13.56566],[-88.83434,13.57607],[-88.83802,13.59661],[-88.84726,13.59146],[-88.88125,13.60095],[-88.89221,13.60001],[-88.89758,13.6156],[-88.8922,13.61986],[-88.89447,13.63265],[-88.88931,13.65114],[-88.8983,13.66133],[-88.9,13.66901],[-88.90133,13.66723],[-88.90461,13.66694],[-88.90642,13.66856],[-88.90849,13.66806],[-88.9094,13.67008],[-88.91912,13.66256],[-88.92398,13.66229],[-88.92588,13.66356],[-88.92808,13.66189],[-88.93487,13.66226],[-88.93339,13.65963],[-88.93609,13.65061],[-88.9354,13.64859],[-88.93774,13.64465],[-88.94053,13.64355],[-88.94068,13.64081],[-88.94364,13.63981],[-88.9518,13.64643],[-88.96102,13.64664],[-88.9648,13.64906],[-88.96952,13.6488],[-88.97513,13.65113],[-88.97626,13.65463],[-88.97866,13.65578],[-88.98149,13.66325],[-88.98971,13.66357],[-88.99753,13.6616],[-89.04485,13.67087]]]}},{"type":"Feature","properties":{"n":"Santa Ana","lat":14.11662482558746,"lon":-89.51089544699737},"geometry":{"type":"Polygon","coordinates":[[[-89.38362,14.02758],[-89.38797,14.02619],[-89.39464,14.02949],[-89.40475,14.0288],[-89.40985,14.02503],[-89.42256,14.03544],[-89.42503,14.03519],[-89.42682,14.03213],[-89.42952,14.03256],[-89.43134,14.03481],[-89.43067,14.04643],[-89.4317,14.05028],[-89.43454,14.05346],[-89.42992,14.06028],[-89.43225,14.07064],[-89.43036,14.07417],[-89.42517,14.07782],[-89.42346,14.08271],[-89.41775,14.08338],[-89.41583,14.08518],[-89.41518,14.08797],[-89.41835,14.08999],[-89.41766,14.09161],[-89.41256,14.09541],[-89.4075,14.09494],[-89.40383,14.09711],[-89.40775,14.11377],[-89.41497,14.12402],[-89.41408,14.12913],[-89.413,14.13003],[-89.41066,14.12793],[-89.40378,14.1287],[-89.39983,14.13317],[-89.39391,14.1348],[-89.38695,14.14195],[-89.37651,14.14904],[-89.37041,14.1679],[-89.35094,14.16869],[-89.32504,14.17297],[-89.31827,14.18012],[-89.31934,14.20052],[-89.32259,14.20682],[-89.32259,14.21319],[-89.31768,14.21949],[-89.31768,14.22587],[-89.31973,14.23421],[-89.32229,14.23599],[-89.32249,14.23791],[-89.32003,14.23773],[-89.31824,14.24261],[-89.31451,14.2386],[-89.31013,14.24009],[-89.29843,14.24872],[-89.29532,14.2481],[-89.2882,14.2423],[-89.28304,14.24804],[-89.27247,14.25153],[-89.27332,14.25651],[-89.26755,14.26137],[-89.26879,14.26665],[-89.26659,14.269],[-89.26849,14.27252],[-89.26664,14.27483],[-89.26725,14.27996],[-89.26237,14.2838],[-89.2623,14.28692],[-89.25815,14.29139],[-89.25793,14.30045],[-89.25384,14.30652],[-89.25648,14.30904],[-89.25664,14.31192],[-89.25297,14.31427],[-89.2519,14.3172],[-89.25032,14.3172],[-89.24873,14.32295],[-89.30461,14.35891],[-89.31866,14.39224],[-89.33661,14.40285],[-89.35451,14.42046],[-89.35643,14.42074],[-89.35668,14.42277],[-89.37215,14.42846],[-89.37357,14.43182],[-89.37964,14.43792],[-89.38523,14.42754],[-89.38744,14.44635],[-89.39263,14.45103],[-89.39834,14.4466],[-89.40214,14.44694],[-89.40766,14.43151],[-89.41162,14.4327],[-89.41323,14.42972],[-89.41296,14.42668],[-89.41545,14.4265],[-89.41572,14.42413],[-89.41875,14.42342],[-89.42024,14.42071],[-89.42211,14.42142],[-89.42611,14.41906],[-89.42626,14.41711],[-89.42948,14.41486],[-89.43343,14.41439],[-89.43476,14.41211],[-89.43914,14.41232],[-89.43992,14.41452],[-89.44296,14.41582],[-89.44317,14.41841],[-89.44637,14.42047],[-89.46284,14.42389],[-89.47072,14.4296],[-89.47382,14.42617],[-89.47566,14.42688],[-89.47651,14.4241],[-89.4834,14.42212],[-89.48451,14.42032],[-89.49141,14.41999],[-89.49706,14.40961],[-89.4994,14.40901],[-89.50147,14.4061],[-89.50543,14.40967],[-89.50951,14.40959],[-89.51175,14.39823],[-89.51625,14.39877],[-89.51666,14.39488],[-89.52087,14.39197],[-89.51909,14.38703],[-89.52111,14.38494],[-89.52639,14.3838],[-89.52676,14.38184],[-89.52961,14.37961],[-89.53647,14.38519],[-89.53698,14.38759],[-89.53323,14.39164],[-89.53377,14.39839],[-89.53577,14.39877],[-89.53601,14.40371],[-89.54303,14.41235],[-89.54259,14.41614],[-89.57392,14.41693],[-89.57876,14.40384],[-89.58113,14.37765],[-89.5786,14.36999],[-89.57352,14.36436],[-89.56984,14.3618],[-89.56802,14.36215],[-89.56782,14.35966],[-89.56386,14.35618],[-89.56481,14.35402],[-89.56343,14.35168],[-89.56436,14.35067],[-89.57409,14.35269],[-89.58042,14.34723],[-89.58235,14.34883],[-89.58755,14.34704],[-89.59006,14.33576],[-89.5919,14.33301],[-89.59227,14.3115],[-89.58907,14.3108],[-89.58162,14.31722],[-89.57793,14.31516],[-89.57484,14.31608],[-89.573,14.31477],[-89.56908,14.31713],[-89.56203,14.3145],[-89.56016,14.31217],[-89.56063,14.30957],[-89.55649,14.30908],[-89.55796,14.30698],[-89.55494,14.30747],[-89.55683,14.30573],[-89.55684,14.30352],[-89.55213,14.30303],[-89.54964,14.29878],[-89.54545,14.29573],[-89.54514,14.28931],[-89.54836,14.2852],[-89.54652,14.28105],[-89.5505,14.27517],[-89.54776,14.27591],[-89.54689,14.26901],[-89.52406,14.24196],[-89.52203,14.24128],[-89.52375,14.23936],[-89.52349,14.23655],[-89.52175,14.2356],[-89.52087,14.23664],[-89.52024,14.23354],[-89.52317,14.22896],[-89.5206,14.22888],[-89.52273,14.22685],[-89.52545,14.21998],[-89.52841,14.22133],[-89.53075,14.21841],[-89.53305,14.21986],[-89.53336,14.21742],[-89.53506,14.21927],[-89.53733,14.21761],[-89.54349,14.22228],[-89.5489,14.22277],[-89.55226,14.22141],[-89.55298,14.2186],[-89.55543,14.21751],[-89.55489,14.21573],[-89.5569,14.21452],[-89.55596,14.21327],[-89.55827,14.21019],[-89.56364,14.21002],[-89.56572,14.20864],[-89.56749,14.21017],[-89.57211,14.20652],[-89.58153,14.20305],[-89.59439,14.20193],[-89.63018,14.2043],[-89.66685,14.18539],[-89.67136,14.17502],[-89.71407,14.13798],[-89.72553,14.11934],[-89.7301,14.10766],[-89.72939,14.10471],[-89.73205,14.09521],[-89.73572,14.08891],[-89.737,14.08236],[-89.74057,14.08153],[-89.73842,14.07723],[-89.74055,14.07782],[-89.74003,14.0748],[-89.74217,14.073],[-89.74231,14.06989],[-89.74591,14.06365],[-89.74535,14.05927],[-89.74273,14.05713],[-89.74537,14.05004],[-89.74347,14.04733],[-89.74238,14.04107],[-89.73832,14.03979],[-89.73506,14.03443],[-89.73459,14.03539],[-89.73246,14.03382],[-89.7301,14.03418],[-89.72966,14.03278],[-89.72703,14.0341],[-89.72548,14.03236],[-89.72632,14.02716],[-89.72276,14.01905],[-89.72305,14.01251],[-89.7167,14.01185],[-89.71563,14.00974],[-89.71325,14.01034],[-89.70829,14.00682],[-89.70511,14.00711],[-89.69917,14.00438],[-89.69629,13.99992],[-89.6954,13.99425],[-89.69619,13.98899],[-89.69889,13.98658],[-89.69722,13.97493],[-89.70573,13.9638],[-89.70464,13.96117],[-89.70705,13.95269],[-89.70643,13.94792],[-89.71183,13.94821],[-89.71155,13.94633],[-89.71475,13.94543],[-89.71609,13.93741],[-89.72073,13.9319],[-89.72026,13.92673],[-89.72596,13.90466],[-89.72257,13.90483],[-89.72131,13.90252],[-89.71421,13.90153],[-89.7112,13.89952],[-89.6905,13.90397],[-89.68644,13.89876],[-89.68382,13.8991],[-89.67913,13.8968],[-89.67387,13.89333],[-89.6742,13.89153],[-89.66585,13.888],[-89.65267,13.87036],[-89.65158,13.86654],[-89.64656,13.86121],[-89.6459,13.85744],[-89.63714,13.85485],[-89.6383,13.85206],[-89.63578,13.8463],[-89.63646,13.84285],[-89.64008,13.84032],[-89.63996,13.83779],[-89.6432,13.83287],[-89.64853,13.82939],[-89.65278,13.82193],[-89.64734,13.81825],[-89.64054,13.82235],[-89.63705,13.82271],[-89.63358,13.82083],[-89.62995,13.82103],[-89.62208,13.81503],[-89.61625,13.81575],[-89.61391,13.81159],[-89.61394,13.81253],[-89.6116,13.8118],[-89.60338,13.81535],[-89.59863,13.81432],[-89.59654,13.82984],[-89.56645,13.83512],[-89.56011,13.83428],[-89.5358,13.81165],[-89.52389,13.816],[-89.52262,13.81524],[-89.52387,13.81222],[-89.51621,13.80572],[-89.51166,13.80568],[-89.50561,13.80353],[-89.50458,13.80197],[-89.49844,13.80251],[-89.48801,13.79999],[-89.48471,13.7977],[-89.48572,13.7958],[-89.48153,13.79395],[-89.48288,13.79289],[-89.48095,13.78791],[-89.47833,13.78949],[-89.47402,13.78795],[-89.4769,13.7872],[-89.47916,13.7842],[-89.47266,13.78374],[-89.46905,13.77829],[-89.46516,13.7786],[-89.46584,13.78255],[-89.46344,13.79323],[-89.4663,13.79368],[-89.4634,13.81197],[-89.46205,13.8107],[-89.4606,13.8126],[-89.46056,13.8108],[-89.45872,13.81256],[-89.458,13.81151],[-89.45514,13.81214],[-89.4544,13.81382],[-89.45378,13.81254],[-89.45298,13.81427],[-89.4536,13.8199],[-89.45751,13.82379],[-89.45951,13.83063],[-89.45701,13.83393],[-89.45044,13.83003],[-89.45107,13.8323],[-89.44994,13.83272],[-89.44881,13.84124],[-89.45098,13.8426],[-89.45148,13.84486],[-89.44656,13.85625],[-89.44996,13.85402],[-89.45109,13.85464],[-89.45175,13.85849],[-89.45,13.86112],[-89.45038,13.87912],[-89.45206,13.87913],[-89.45441,13.89199],[-89.45887,13.89325],[-89.45567,13.89868],[-89.4565,13.89928],[-89.45239,13.91103],[-89.45235,13.91695],[-89.43932,13.92931],[-89.43379,13.93027],[-89.43004,13.93348],[-89.42646,13.93164],[-89.42416,13.93263],[-89.41632,13.9409],[-89.4113,13.94407],[-89.40955,13.9473],[-89.40113,13.95038],[-89.39899,13.94912],[-89.39401,13.95425],[-89.39188,13.95471],[-89.39359,13.97217],[-89.39608,13.97448],[-89.39553,13.97609],[-89.39903,13.98448],[-89.39783,13.99069],[-89.38359,14.02272],[-89.38362,14.02716],[-89.38362,14.02758]]]}},{"type":"Feature","properties":{"n":"Chalatenango","lat":14.161661416310162,"lon":-89.08187513796793},"geometry":{"type":"Polygon","coordinates":[[[-88.94879,13.94106],[-88.94021,13.9391],[-88.93838,13.94162],[-88.9284,13.94801],[-88.92025,13.95068],[-88.91755,13.94076],[-88.9148,13.93874],[-88.90697,13.94048],[-88.8896,13.93262],[-88.88503,13.93615],[-88.87999,13.93724],[-88.87281,13.93641],[-88.8573,13.95017],[-88.85908,13.95577],[-88.85709,13.95733],[-88.8407,13.95556],[-88.83674,13.95228],[-88.83318,13.95221],[-88.82416,13.96568],[-88.8217,13.96738],[-88.81272,13.96568],[-88.80363,13.96972],[-88.7924,13.97197],[-88.78429,13.97193],[-88.775,13.97618],[-88.76927,13.99113],[-88.75596,13.98992],[-88.74825,13.99677],[-88.73793,13.99984],[-88.73415,13.9993],[-88.72854,13.99599],[-88.72477,13.99605],[-88.71523,14.00119],[-88.71016,14.00178],[-88.70707,14.00435],[-88.70129,14.00362],[-88.69278,14.00892],[-88.68357,14.01014],[-88.68402,14.01541],[-88.68147,14.01959],[-88.68587,14.02415],[-88.68294,14.02714],[-88.68232,14.03213],[-88.68746,14.03911],[-88.68933,14.03901],[-88.69052,14.04141],[-88.69262,14.04192],[-88.69228,14.04374],[-88.69712,14.04267],[-88.69914,14.04534],[-88.70285,14.04312],[-88.70291,14.04451],[-88.70662,14.04676],[-88.70894,14.04645],[-88.73757,14.13124],[-88.79888,14.16459],[-88.80798,14.14037],[-88.80616,14.13679],[-88.80175,14.13491],[-88.8011,14.13251],[-88.80132,14.13019],[-88.8058,14.12812],[-88.80574,14.12341],[-88.80776,14.12092],[-88.80763,14.11843],[-88.8143,14.11155],[-88.81449,14.10819],[-88.81795,14.1092],[-88.81953,14.10825],[-88.82042,14.10946],[-88.82717,14.10602],[-88.8293,14.10649],[-88.83129,14.10458],[-88.8298,14.11221],[-88.83391,14.11521],[-88.8367,14.1221],[-88.8362,14.12452],[-88.84019,14.1282],[-88.8396,14.13123],[-88.84694,14.13093],[-88.84806,14.13908],[-88.84623,14.14063],[-88.85006,14.14537],[-88.84893,14.14881],[-88.85852,14.15282],[-88.85975,14.16315],[-88.86231,14.16806],[-88.86029,14.17224],[-88.86423,14.17371],[-88.86668,14.17862],[-88.87117,14.18007],[-88.8721,14.18272],[-88.87578,14.18575],[-88.87938,14.18535],[-88.88236,14.1896],[-88.88495,14.18809],[-88.89119,14.19178],[-88.89561,14.19016],[-88.90047,14.191],[-88.90057,14.19488],[-88.90351,14.19758],[-88.90271,14.20567],[-88.91835,14.20798],[-88.92092,14.20714],[-88.92285,14.20851],[-88.92853,14.20574],[-88.93023,14.20329],[-88.93737,14.20405],[-88.94047,14.20274],[-88.94453,14.206],[-88.94655,14.20488],[-88.94812,14.2068],[-88.95454,14.20619],[-88.95857,14.2091],[-88.96105,14.20833],[-88.96212,14.21208],[-88.96489,14.21118],[-88.97233,14.21317],[-88.97484,14.21885],[-88.97032,14.22243],[-88.97008,14.2252],[-88.97668,14.23218],[-88.97612,14.23507],[-88.97961,14.23739],[-88.97817,14.24109],[-88.98148,14.24117],[-88.98194,14.24555],[-88.9845,14.24486],[-88.98745,14.24819],[-88.98813,14.25316],[-88.99151,14.25858],[-88.99474,14.25908],[-89.01448,14.27146],[-89.01589,14.2701],[-89.01815,14.27109],[-89.02329,14.26954],[-89.0258,14.27143],[-89.02448,14.27894],[-89.02602,14.28057],[-89.02603,14.28356],[-89.02398,14.28398],[-89.02382,14.28626],[-89.02148,14.28874],[-89.02298,14.29117],[-89.02212,14.29452],[-89.02534,14.29865],[-89.02322,14.30001],[-89.02453,14.30212],[-89.0228,14.30385],[-89.02448,14.3057],[-89.02205,14.30798],[-89.02231,14.31424],[-89.02652,14.31344],[-89.02673,14.31538],[-89.02857,14.31555],[-89.03005,14.31772],[-89.0345,14.31654],[-89.03314,14.31921],[-89.03601,14.32207],[-89.03368,14.32556],[-89.03626,14.33264],[-89.05445,14.33542],[-89.06302,14.33449],[-89.06988,14.33625],[-89.07449,14.33852],[-89.07595,14.34083],[-89.08004,14.3399],[-89.08264,14.34108],[-89.08334,14.34429],[-89.08152,14.34724],[-89.08627,14.3502],[-89.0835,14.35205],[-89.08007,14.3584],[-89.08185,14.36203],[-89.08118,14.36665],[-89.0823,14.36896],[-89.08093,14.3697],[-89.08212,14.37022],[-89.08143,14.37448],[-89.08339,14.37535],[-89.08224,14.37681],[-89.08423,14.37807],[-89.08352,14.38128],[-89.08877,14.38808],[-89.08919,14.39082],[-89.09035,14.39088],[-89.09049,14.39546],[-89.09767,14.40237],[-89.10763,14.40842],[-89.16859,14.36608],[-89.18196,14.36476],[-89.18731,14.36683],[-89.18922,14.36617],[-89.19248,14.36822],[-89.19506,14.3674],[-89.19817,14.37021],[-89.20361,14.37043],[-89.20496,14.37261],[-89.2095,14.37399],[-89.21115,14.3725],[-89.21291,14.38325],[-89.20938,14.38582],[-89.21018,14.38764],[-89.22028,14.38892],[-89.22516,14.38756],[-89.22703,14.39189],[-89.23455,14.39558],[-89.24528,14.39124],[-89.27649,14.40126],[-89.29733,14.41766],[-89.30605,14.41376],[-89.31333,14.4157],[-89.31868,14.41878],[-89.32227,14.42416],[-89.32562,14.43363],[-89.33579,14.43838],[-89.338,14.43699],[-89.35483,14.42069],[-89.33661,14.40285],[-89.31866,14.39224],[-89.30461,14.35891],[-89.26214,14.33197],[-89.24873,14.32295],[-89.24889,14.32185],[-89.25032,14.3172],[-89.2519,14.3172],[-89.25297,14.31427],[-89.25664,14.31192],[-89.25648,14.30904],[-89.25384,14.30652],[-89.25793,14.30045],[-89.25815,14.29139],[-89.2623,14.28692],[-89.26237,14.2838],[-89.26725,14.27996],[-89.26664,14.27483],[-89.26849,14.27252],[-89.26659,14.269],[-89.26879,14.26665],[-89.26755,14.26137],[-89.27332,14.25651],[-89.27247,14.25153],[-89.28304,14.24804],[-89.2882,14.2423],[-89.29532,14.2481],[-89.29843,14.24872],[-89.31013,14.24009],[-89.31451,14.2386],[-89.31824,14.24261],[-89.32003,14.23773],[-89.32249,14.23791],[-89.32229,14.23599],[-89.31973,14.23421],[-89.31768,14.22587],[-89.31768,14.21949],[-89.32259,14.21319],[-89.32259,14.20682],[-89.31934,14.20052],[-89.31827,14.18012],[-89.32504,14.17297],[-89.35094,14.16869],[-89.37041,14.1679],[-89.37651,14.14904],[-89.38695,14.14195],[-89.39391,14.1348],[-89.39983,14.13317],[-89.40378,14.1287],[-89.41066,14.12793],[-89.413,14.13003],[-89.41408,14.12913],[-89.41497,14.12402],[-89.40775,14.11377],[-89.40383,14.09711],[-89.4075,14.09494],[-89.41256,14.09541],[-89.41766,14.09161],[-89.41835,14.08999],[-89.41518,14.08797],[-89.41583,14.08518],[-89.41775,14.08338],[-89.42346,14.08271],[-89.42517,14.07782],[-89.43036,14.07417],[-89.43225,14.07064],[-89.42992,14.06028],[-89.43452,14.05289],[-89.4317,14.05028],[-89.43067,14.04643],[-89.43061,14.03354],[-89.42682,14.03213],[-89.42503,14.03519],[-89.42256,14.03544],[-89.40985,14.02503],[-89.40475,14.0288],[-89.39464,14.02949],[-89.38726,14.0262],[-89.37689,14.03033],[-89.37357,14.02604],[-89.37066,14.02499],[-89.36427,14.04377],[-89.35705,14.05039],[-89.34702,14.04756],[-89.33701,14.05006],[-89.33459,14.05127],[-89.32811,14.06091],[-89.32021,14.06414],[-89.30889,14.06473],[-89.30562,14.06335],[-89.30732,14.05766],[-89.30522,14.05472],[-89.30358,14.04541],[-89.29328,14.04699],[-89.2881,14.04555],[-89.28383,14.05123],[-89.27719,14.04715],[-89.27651,14.04105],[-89.27381,14.03781],[-89.27086,14.04413],[-89.26769,14.04463],[-89.2656,14.04241],[-89.25501,14.04515],[-89.25265,14.04723],[-89.25199,14.05122],[-89.25019,14.05215],[-89.2395,14.05228],[-89.23392,14.04962],[-89.22687,14.04934],[-89.22413,14.04396],[-89.21971,14.04107],[-89.21755,14.0413],[-89.21117,14.04501],[-89.20679,14.04528],[-89.2024,14.05364],[-89.19834,14.05703],[-89.19386,14.05804],[-89.19018,14.06172],[-89.18003,14.05637],[-89.17945,14.05256],[-89.18178,14.04522],[-89.17569,14.04175],[-89.16594,14.03899],[-89.16074,14.04159],[-89.16021,14.04609],[-89.16212,14.05239],[-89.15901,14.05424],[-89.14886,14.05513],[-89.15141,14.0616],[-89.14885,14.06072],[-89.1435,14.06445],[-89.13582,14.06604],[-89.1207,14.07785],[-89.11352,14.06607],[-89.11251,14.06041],[-89.10746,14.05518],[-89.10519,14.0485],[-89.10313,14.04723],[-89.03433,14.03599],[-89.03118,14.00462],[-89.02758,13.99935],[-89.02113,13.99808],[-89.01931,13.99541],[-89.02137,13.98916],[-89.02095,13.97897],[-89.01986,13.97647],[-89.01475,13.97338],[-89.01465,13.97056],[-89.01737,13.96634],[-89.01467,13.95737],[-89.00602,13.95573],[-89.0017,13.95286],[-88.98939,13.95327],[-88.9751,13.94523],[-88.96752,13.94781],[-88.95323,13.94393],[-88.94879,13.94106]]]}},{"type":"Feature","properties":{"n":"San Salvador","lat":13.793948604999999,"lon":-89.19300577428567},"geometry":{"type":"Polygon","coordinates":[[[-89.13859,14.06478],[-89.1435,14.06445],[-89.14885,14.06072],[-89.15141,14.0616],[-89.14874,14.05665],[-89.14958,14.05454],[-89.15901,14.05424],[-89.16212,14.05239],[-89.16021,14.04609],[-89.16074,14.04159],[-89.16594,14.03899],[-89.17569,14.04175],[-89.18178,14.04522],[-89.17945,14.05256],[-89.18003,14.05637],[-89.18933,14.06169],[-89.2024,14.05364],[-89.20679,14.04528],[-89.21117,14.04501],[-89.21891,14.04095],[-89.22413,14.04396],[-89.22687,14.04934],[-89.23392,14.04962],[-89.2395,14.05228],[-89.25143,14.05183],[-89.25362,14.04584],[-89.2656,14.04241],[-89.27078,14.03795],[-89.27475,14.03673],[-89.27128,14.03524],[-89.27323,14.03323],[-89.27431,14.03408],[-89.27648,14.03286],[-89.27918,14.02635],[-89.28076,14.02929],[-89.28311,14.0274],[-89.28264,14.0245],[-89.28467,14.02269],[-89.28354,14.01837],[-89.28675,14.01501],[-89.2852,14.00995],[-89.28867,14.0073],[-89.29167,14.00739],[-89.29265,14.00516],[-89.29224,14.00176],[-89.28989,13.99988],[-89.29284,13.99404],[-89.28953,13.99237],[-89.29118,13.99061],[-89.28767,13.98723],[-89.28625,13.98108],[-89.28177,13.97824],[-89.28109,13.98332],[-89.27938,13.98368],[-89.27808,13.98175],[-89.27284,13.9797],[-89.27354,13.97701],[-89.27114,13.97703],[-89.27041,13.97492],[-89.26619,13.97579],[-89.26487,13.9722],[-89.26121,13.96959],[-89.26107,13.96543],[-89.25605,13.96469],[-89.2664,13.95363],[-89.26324,13.95313],[-89.24699,13.94431],[-89.23742,13.94134],[-89.22318,13.94219],[-89.21844,13.93191],[-89.21915,13.91848],[-89.23436,13.92016],[-89.23544,13.89666],[-89.23805,13.88954],[-89.24086,13.86508],[-89.24459,13.84886],[-89.24897,13.84124],[-89.25468,13.82158],[-89.26414,13.81215],[-89.26414,13.80537],[-89.26064,13.80418],[-89.26192,13.80057],[-89.26037,13.79181],[-89.26276,13.77987],[-89.26154,13.76705],[-89.26326,13.75733],[-89.26419,13.7581],[-89.26479,13.75632],[-89.26991,13.75565],[-89.27003,13.75183],[-89.28594,13.73725],[-89.26504,13.74706],[-89.26329,13.74356],[-89.26488,13.74067],[-89.26488,13.73474],[-89.27052,13.72838],[-89.27123,13.72257],[-89.27458,13.71905],[-89.27554,13.71529],[-89.27457,13.71306],[-89.27672,13.71274],[-89.27586,13.7097],[-89.26117,13.70946],[-89.25562,13.69448],[-89.24891,13.69063],[-89.24686,13.68794],[-89.24603,13.68107],[-89.23902,13.68356],[-89.23022,13.68319],[-89.23203,13.68185],[-89.22671,13.6648],[-89.22474,13.66205],[-89.22916,13.65594],[-89.23194,13.65804],[-89.23765,13.65706],[-89.24356,13.64153],[-89.24267,13.63573],[-89.23475,13.63612],[-89.23506,13.63392],[-89.22387,13.633],[-89.22123,13.62714],[-89.22346,13.62015],[-89.22677,13.61933],[-89.22823,13.61711],[-89.22677,13.61227],[-89.22814,13.60894],[-89.22654,13.60757],[-89.22628,13.60477],[-89.23158,13.59476],[-89.23164,13.59047],[-89.2264,13.58394],[-89.22211,13.58191],[-89.22099,13.57891],[-89.21958,13.57864],[-89.22168,13.56952],[-89.22121,13.56261],[-89.22416,13.55841],[-89.22581,13.55178],[-89.23083,13.54552],[-89.23036,13.54283],[-89.23241,13.53743],[-89.23005,13.53305],[-89.22473,13.52865],[-89.22551,13.52556],[-89.22439,13.52234],[-89.22097,13.52025],[-89.21967,13.51546],[-89.21585,13.51571],[-89.2174,13.5117],[-89.21439,13.50316],[-89.21529,13.49973],[-89.21186,13.49969],[-89.20847,13.49768],[-89.20607,13.49088],[-89.20821,13.48571],[-89.20729,13.47947],[-89.19379,13.47881],[-89.18256,13.47553],[-89.17831,13.48359],[-89.17158,13.48495],[-89.17271,13.48855],[-89.17179,13.49149],[-89.16917,13.49054],[-89.16526,13.49304],[-89.16053,13.49131],[-89.16138,13.49574],[-89.15885,13.49895],[-89.15677,13.50864],[-89.14765,13.51159],[-89.14677,13.51378],[-89.14477,13.51436],[-89.1469,13.51523],[-89.14789,13.51863],[-89.14415,13.52046],[-89.1457,13.5225],[-89.14091,13.52918],[-89.14441,13.53335],[-89.14563,13.53732],[-89.14065,13.53744],[-89.13465,13.54244],[-89.13557,13.55336],[-89.13765,13.5556],[-89.13425,13.56197],[-89.1352,13.56752],[-89.14116,13.57582],[-89.14434,13.57766],[-89.14427,13.58188],[-89.14709,13.58261],[-89.14739,13.58531],[-89.15203,13.58887],[-89.15187,13.59495],[-89.15587,13.59955],[-89.15527,13.60326],[-89.15781,13.61],[-89.12898,13.61077],[-89.11841,13.61414],[-89.11334,13.61155],[-89.10941,13.60617],[-89.1029,13.61396],[-89.10181,13.62353],[-89.0938,13.62772],[-89.08543,13.63794],[-89.04485,13.67087],[-89.02545,13.69805],[-89.04012,13.73777],[-89.04009,13.74453],[-89.04437,13.74961],[-89.04977,13.75315],[-89.04897,13.75556],[-89.05088,13.75691],[-89.05278,13.76749],[-89.07057,13.7921],[-89.06978,13.80149],[-89.08839,13.80118],[-89.08869,13.80265],[-89.09362,13.80167],[-89.09825,13.80344],[-89.10196,13.80671],[-89.10227,13.81342],[-89.10627,13.81555],[-89.10867,13.82087],[-89.11331,13.82315],[-89.1144,13.82752],[-89.11348,13.83039],[-89.11517,13.83318],[-89.11425,13.8379],[-89.11801,13.84087],[-89.12049,13.84659],[-89.12203,13.84544],[-89.12274,13.84749],[-89.12592,13.84636],[-89.13165,13.84765],[-89.13528,13.84536],[-89.13326,13.84441],[-89.14124,13.83907],[-89.14297,13.84259],[-89.1433,13.84825],[-89.14716,13.85118],[-89.14876,13.85844],[-89.15426,13.86379],[-89.15566,13.86311],[-89.15663,13.86441],[-89.15555,13.86877],[-89.1515,13.86766],[-89.13308,13.87547],[-89.13008,13.88192],[-89.12235,13.89106],[-89.12273,13.89484],[-89.13404,13.91032],[-89.13838,13.91087],[-89.14384,13.9166],[-89.14975,13.9187],[-89.14945,13.92242],[-89.15258,13.92581],[-89.15462,13.93236],[-89.1609,13.94],[-89.16207,13.94456],[-89.16541,13.94663],[-89.16442,13.94823],[-89.16598,13.94932],[-89.16688,13.95849],[-89.16863,13.96123],[-89.16522,13.9642],[-89.16276,13.9691],[-89.15866,13.97077],[-89.15697,13.97364],[-89.15731,13.98067],[-89.14901,13.9947],[-89.14972,13.99945],[-89.14736,14.00145],[-89.15053,14.00941],[-89.14924,14.01869],[-89.15238,14.02342],[-89.15521,14.02502],[-89.15345,14.0271],[-89.15345,14.03689],[-89.15238,14.0393],[-89.14766,14.03951],[-89.1422,14.04735],[-89.13855,14.06454],[-89.13859,14.06478]]]}},{"type":"Feature","properties":{"n":"Cabañas","lat":13.855675977290844,"lon":-88.73257144023901},"geometry":{"type":"Polygon","coordinates":[[[-88.86558,13.77053],[-88.85994,13.7708],[-88.85578,13.77576],[-88.84532,13.78017],[-88.84137,13.7788],[-88.83624,13.78028],[-88.83258,13.77976],[-88.82922,13.78232],[-88.82843,13.77903],[-88.82377,13.77877],[-88.82181,13.77728],[-88.81747,13.77952],[-88.81752,13.77829],[-88.81325,13.77758],[-88.81284,13.77499],[-88.80876,13.77732],[-88.80688,13.77495],[-88.80398,13.77448],[-88.80175,13.77659],[-88.79748,13.77652],[-88.79482,13.77813],[-88.79411,13.77725],[-88.79184,13.77844],[-88.79177,13.7803],[-88.78973,13.779],[-88.78418,13.78536],[-88.77834,13.78634],[-88.76984,13.79236],[-88.7621,13.79159],[-88.76066,13.78938],[-88.75602,13.79032],[-88.75482,13.79532],[-88.75173,13.7958],[-88.74858,13.80226],[-88.74806,13.79832],[-88.74311,13.79909],[-88.74083,13.79653],[-88.73924,13.79745],[-88.72877,13.79351],[-88.72725,13.79411],[-88.72742,13.79836],[-88.72551,13.79851],[-88.72364,13.79634],[-88.72279,13.79172],[-88.7204,13.79059],[-88.71927,13.78805],[-88.71508,13.78801],[-88.71525,13.78986],[-88.71382,13.79055],[-88.71373,13.78853],[-88.70892,13.78525],[-88.70139,13.79126],[-88.69981,13.78976],[-88.69755,13.7908],[-88.69416,13.79005],[-88.69206,13.79347],[-88.68813,13.79207],[-88.68719,13.78903],[-88.68373,13.78817],[-88.6821,13.78617],[-88.6779,13.78728],[-88.67571,13.79071],[-88.67496,13.78751],[-88.67288,13.78657],[-88.665,13.79042],[-88.66084,13.79595],[-88.65779,13.79176],[-88.65277,13.79109],[-88.65236,13.78751],[-88.64944,13.78646],[-88.64496,13.7814],[-88.63384,13.77915],[-88.63153,13.78071],[-88.62432,13.77619],[-88.6203,13.77052],[-88.61215,13.76925],[-88.60938,13.76737],[-88.60387,13.76744],[-88.60005,13.77029],[-88.59653,13.77008],[-88.59816,13.76381],[-88.60084,13.7625],[-88.60104,13.7607],[-88.59722,13.75344],[-88.58934,13.75116],[-88.59185,13.7491],[-88.59031,13.74268],[-88.58453,13.74243],[-88.57878,13.74547],[-88.57256,13.74234],[-88.5664,13.7478],[-88.56404,13.74411],[-88.54834,13.74399],[-88.54269,13.74678],[-88.5402,13.74628],[-88.53514,13.74937],[-88.5271,13.74893],[-88.52853,13.76625],[-88.52222,13.77536],[-88.51746,13.77938],[-88.51477,13.78451],[-88.50896,13.7878],[-88.51001,13.79347],[-88.51589,13.80039],[-88.51598,13.80366],[-88.51218,13.81014],[-88.49798,13.82033],[-88.4978,13.82606],[-88.50047,13.83077],[-88.50081,13.83494],[-88.49398,13.8455],[-88.49705,13.85081],[-88.49212,13.86143],[-88.49577,13.86621],[-88.4963,13.86971],[-88.49566,13.87271],[-88.49197,13.87567],[-88.49175,13.87763],[-88.50109,13.89396],[-88.50564,13.9087],[-88.51109,13.91164],[-88.50974,13.91818],[-88.50665,13.92185],[-88.50806,13.92768],[-88.50639,13.93574],[-88.50701,13.94155],[-88.50563,13.94438],[-88.49871,13.94986],[-88.49769,13.95278],[-88.50006,13.96059],[-88.49976,13.967],[-88.50954,13.974],[-88.52501,13.9818],[-88.52903,13.98545],[-88.53737,13.98426],[-88.5399,13.98509],[-88.54732,13.98268],[-88.54879,13.98028],[-88.55731,13.98326],[-88.56898,13.97828],[-88.57309,13.98157],[-88.57321,13.98915],[-88.57679,13.99672],[-88.58435,14.00246],[-88.5866,14.00714],[-88.59406,14.00918],[-88.59737,14.00616],[-88.60773,14.00535],[-88.61812,14.01493],[-88.62436,14.01757],[-88.62769,14.02278],[-88.63432,14.02195],[-88.64007,14.0168],[-88.64756,14.01924],[-88.65331,14.0177],[-88.66235,14.02448],[-88.66428,14.02325],[-88.66508,14.01696],[-88.67126,14.00962],[-88.67931,14.01153],[-88.69278,14.00892],[-88.70129,14.00362],[-88.70707,14.00435],[-88.71016,14.00178],[-88.71444,14.0015],[-88.72591,13.99582],[-88.72967,13.99635],[-88.73415,13.9993],[-88.74108,13.9993],[-88.75028,13.99558],[-88.75596,13.98992],[-88.76927,13.99113],[-88.775,13.97618],[-88.78429,13.97193],[-88.7924,13.97197],[-88.80363,13.96972],[-88.81272,13.96568],[-88.8217,13.96738],[-88.82416,13.96568],[-88.83318,13.95221],[-88.83674,13.95228],[-88.8407,13.95556],[-88.85709,13.95733],[-88.85908,13.95577],[-88.8573,13.95017],[-88.87281,13.93641],[-88.87999,13.93724],[-88.88503,13.93615],[-88.8896,13.93262],[-88.90697,13.94048],[-88.9148,13.93874],[-88.91755,13.94076],[-88.92025,13.95068],[-88.9284,13.94801],[-88.93838,13.94162],[-88.94021,13.9391],[-88.94879,13.94106],[-88.95697,13.93333],[-88.95838,13.92593],[-88.96997,13.91647],[-88.97484,13.91435],[-88.97545,13.91],[-88.98199,13.90614],[-88.98711,13.88681],[-88.98188,13.88555],[-88.98218,13.87942],[-88.98805,13.86862],[-88.98507,13.86344],[-88.97729,13.85836],[-88.9745,13.85819],[-88.97053,13.85542],[-88.96821,13.85619],[-88.96778,13.85281],[-88.96518,13.8515],[-88.96424,13.84894],[-88.96098,13.84819],[-88.96123,13.84433],[-88.95506,13.84363],[-88.95068,13.84733],[-88.94396,13.83942],[-88.9407,13.83869],[-88.93806,13.83458],[-88.93345,13.83246],[-88.93186,13.82587],[-88.93465,13.82135],[-88.9331,13.82196],[-88.93044,13.81925],[-88.92426,13.81933],[-88.91716,13.82328],[-88.91481,13.81958],[-88.9118,13.81784],[-88.91243,13.80782],[-88.92194,13.80591],[-88.92085,13.80387],[-88.92212,13.80125],[-88.91797,13.79815],[-88.92069,13.79246],[-88.91736,13.79246],[-88.91237,13.78859],[-88.90603,13.79066],[-88.90326,13.78895],[-88.90038,13.78924],[-88.89829,13.78828],[-88.89597,13.78365],[-88.89501,13.78417],[-88.89081,13.78078],[-88.89061,13.77912],[-88.88745,13.77939],[-88.88565,13.7758],[-88.87363,13.77678],[-88.86575,13.77055],[-88.86558,13.77053]]]}}]}